Region,Country,Location,Longitude,Latitude,Source,Primary Reason for Exclusion,Additional Information,Reference(s),,,,,,,,,
North America ,Canada,national (Ab-C),NA,NA,SeroTracker,advanced economy,,https://www.medrxiv.org/content/10.1101/2021.03.04.21252540v1.full-text,https://papers.ssrn.com/sol3/papers.cfm?abstract_id=3903944,https://papers.ssrn.com/sol3/papers.cfm?abstract_id=3752659,https://abcstudy.ca/news/newsletter-2021-03-12/,https://abcstudy.ca/news/newsletter-2021-06-18/,https://web.archive.org/web/20210104013826/https://figshare.com/articles/journal%20contribution/The_Action_to_Beat_Coronavirus_Action_pour_Battre_le_Coronavirus_Ab-C_study_protocol_/13124595/1,https://web.archive.org/web/20210104013907/https://www.angusreid.com/abc-study-page/,https://twitter.com/GlobalNational/status/1268553442773078016,,
North America ,Canada,national (CCAHS),NA,NA,Google,advanced economy,,https://www150.statcan.gc.ca/n1/en/daily-quotidien/210706/dq210706a-eng.pdf?st=Cl_X3kpv,https://www23.statcan.gc.ca/imdb/p2SV.pl?Function=getSurvey&SDDS=5339,https://www.statcan.gc.ca/eng/survey/household/5339/brochure,https://www.statcan.gc.ca/eng/survey/household/5339,,,,,,
North America ,USA,national (Vu study),NA,NA,SeroTracker,advanced economy,,national results: https://academic.oup.com/cid/advance-article/doi/10.1093/cid/ciab626/6318822?login=true,https://papers.ssrn.com/sol3/papers.cfm?abstract_id=3834313,abstract #636 on page 248: https://web.archive.org/web/20210312024505/https://2jg4quetidw2blbbq2ixwziw-wpengine.netdna-ssl.com/wp-content/uploads/sites/2/2021/03/ABSTRACTS-wBook-3_8_21wc.pdf,https://news.emory.edu/stories/2021/03/covidvu_at_croi/index.html,https://www.sciencedirect.com/science/article/pii/S1047279720302751,,,,,
North America ,USA,Arizona: Maricopa County,NA,NA,SeroTracker,advanced economy,,https://www.maricopa.gov/CivicAlerts.aspx?AID=1876,https://www.maricopa.gov/5607/COVID-19-Serosurvey,https://research.asu.edu/serosurvey-maricopa-county,https://research.asu.edu/study-shows-covid-19-often-undetected-maricopa-county,https://twitter.com/JehnML/status/1368658534456459270,,,,,
North America ,USA,California: Bolinas,NA,NA,SeroTracker,advanced economy,,https://academic.oup.com/ofid/advance-article/doi/10.1093/ofid/ofaa531/5943212,https://bolinastesting.org/,,,,,,,,
North America ,USA,California: Los Angeles County,NA,NA,SeroTracker,advanced economy,,https://jamanetwork.com/journals/jama/fullarticle/2766367,issues with antibody test:  https://oversight.house.gov/sites/democrats.oversight.house.gov/files/2020-04-28.RK%20to%20Premier%20Biotech%20re%20Serology%20Tests.pdf,population fatality rate of >0.24%:  http://dashboard.publichealth.lacounty.gov/covid19_surveillance_dashboard/,SoapBox sample:  https://www.soapboxsample.com/soapboxsample-helps-riverside-county-gauge-spread-covid-19/,,,,,,
North America ,USA,California: Orange County,NA,NA,SeroTracker,advanced economy,,https://www.nature.com/articles/s41598-021-82662-x,https://wwwnc.cdc.gov/eid/article/27/10/21-0103_article,https://www.medrxiv.org/content/10.1101/2020.10.07.20208660v1.full-text,https://covid-19.publichealth.uci.edu/act-oc/,SoapBox company mentioned in medrxiv draft:  https://www.soapboxsample.com/soapboxsample-helps-riverside-county-gauge-spread-covid-19/,,,,,
North America ,USA,California: Orange County (Santa Ana),NA,NA,MedRxiv,advanced economy,,https://www.biorxiv.org/content/10.1101/2021.04.15.440089v3.full,https://publichealth.uci.edu/ph/_news_events/featured_news/surveillance-study-finds-disparities-high-proportion-of-past-covid-19-infec,,,,,,,,
North America ,USA,California: Placer County,NA,NA,SeroTracker,advanced economy,insufficient information about assay,https://www.placer.ca.gov/DocumentCenter/View/49523/2021-011221-PowerPoint-Item-02A,https://yubanet.com/regional/placers-covid-19-infection-rate-likely-triple-number-of-confirmed-cases-vaccination-offers-stronger-antibody-response-than-natural-infection-study-suggests/,https://www.placer.ca.gov/7235/COVID-19-antibodies-study-results,https://www.placer.ca.gov/7104/COVID-19-antibody-study-continues,https://www.placer.ca.gov/6913/Placer-COVID-19-antibody-study,https://www.placer.ca.gov/DocumentCenter/View/44675/03?bidId=,http://med.stanford.edu/epidemiology-dept/research/covid-research-collaborative/CA-Facts.html,https://www.ca-facts.org/,,
North America ,USA,California: Riverside County,NA,NA,SeroTracker,advanced economy,insufficient information about assay,https://rivcoph.org/Portals/0/Documents/CoronaVirus/July/News/7.27.20%20antibody%20testing%20results.pdf?ver=2020-07-27-144931-703&timestamp=1595886602504,https://countyofriverside.us/NewsHighlights/TabId/96/ArtMID/487/ArticleID/506/Riverside-County-to-begin-coronavirus-antibody-testing-as-part-of-prevalence-study.aspx#gsc.tab=0,SoapBox sample:  https://www.soapboxsample.com/soapboxsample-helps-riverside-county-gauge-spread-covid-19/,http://archive.is/JXtUt#selection-1159.0-1163.200,https://www.rivco.org/news/riverside-county-begin-coronavirus-antibody-testing-part-prevalence-study,,,,,
North America ,USA,Colorado: San Miguel County,NA,NA,SeroTracker,advanced economy,insufficient information about assay,http://web.archive.org/web/20200727075113/https://www.sanmiguelcountyco.gov/CivicAlerts.aspx?AID=586,https://www.sanmiguelcountyco.gov/DocumentCenter/View/5764/Antibody-Blood-Test-Final-Numbers-English-PNG?bidId= ,https://www.sanmiguelcountyco.gov/DocumentCenter/View/5717/San-Miguel-County-IgG-Antibody-Test-Statistics-and-Demographics-PDF?bidId=,,,,,,,
North America ,USA,Connecticut,NA,NA,SeroTracker,advanced economy,,https://www.amjmed.com/article/S0002-9343(20)30909-8/fulltext,https://www.medrxiv.org/content/10.1101/2020.10.30.20223461v1,https://www.amjmed.com/article/S0002-9343(21)00099-1/fulltext,,,,,,,
North America ,USA,Florida: Miami-Dade County (only April results; June results are unreliable),NA,NA,SeroTracker,advanced economy,insufficient information about sample design; research pause due to issues with its assay,https://umiamihealth.org/en/coronavirus/spark-c ,https://www.aaci-cancer.org/Files/Admin/Annual-Meeting/Presentations/Kobetz.pdf,"issues with antibody test, ""Community-Based Testing Program"":  https://www.ncbi.nlm.nih.gov/pmc/articles/PMC7545514/","population fatality rate of >0.22%:  https://coronavirus.jhu.edu/us-map  ,  ",https://news.miami.edu/stories/2020/04/sylvester-researchers-to-collaborate-with-miami-dade-county-on-coronavirus-testing.html,outdated: https://www.miamidade.gov/releases/2020-04-24-sample-testing-results.asp,,,,
North America ,USA,Georgia (Vu study),NA,NA,MedRxiv,advanced economy,,https://www.medrxiv.org/content/10.1101/2021.05.06.21256407v1.full,,,,,,,,,
North America ,USA,Georgia: DeKalb and Fulton Counties,NA,NA,SeroTracker,advanced economy,,https://www.cdc.gov/mmwr/volumes/69/wr/mm6929e2.htm,,,,,,,,,
North America ,USA,Indiana,NA,NA,SeroTracker,advanced economy,,https://www.cdc.gov/mmwr/volumes/69/wr/mm6929e1.htm,https://www.pnas.org/content/118/5/e2013906118.short,https://www.medrxiv.org/content/10.1101/2020.10.11.20210922v1.full?versioned=true,https://www.acpjournals.org/doi/full/10.7326/M20-5352,https://news.iu.edu/stories/2020/06/iupui/releases/17-fairbanks-isdh-second-phase-covid-19-testing-indiana-research.html,https://fsph.iupui.edu/coronavirus/covid-19-random-sample-study.html,https://www.pnas.org/content/118/9/e2026412118,,,
North America ,USA,Kentucky: Jefferson County,NA,NA,SeroTracker,advanced economy,insufficient information about assay,https://www.uoflnews.com/post/uofltoday/co-immunity-project-shows-covid-19-infection-rate-in-jefferson-county-increased-tenfold-since-september/,https://louisville.edu/medicine/news/phase-ii-results-of-co-immunity-project-show-higher-than-expected-rates-of-exposure-to-novel-coronavirus-in-jefferson-county,https://twitter.com/GidMK/status/1287514523549671424,https://www.uoflnews.com/post/uofltoday/second-round-of-co-immunity-project-tests-shows-increasing-rates-of-covid-19-infections-in-jefferson-county/,https://www.facebook.com/WHAS11/videos/watch-live-mayor-greg-fischer-dr-sarah-moyer-and-members-of-uofls-co-immunity-pr/707426856486337/,https://louisville.edu/envirome/thecoimmunityproject/communitystudy,3 different antibody tests used: https://co-immunityproject.com/,https://www.westat.com/project/supporting-university-louisville-estimating-rate-coronavirus-infection-jefferson-county,https://www.westat.com/articles/westat-partners-university-louisville-covid-19-antibody-testing,
North America ,USA,Louisiana: 4 parishes near Baton Rouge,NA,NA,SeroTracker,advanced economy,,https://wwwnc.cdc.gov/eid/article/27/1/20-3808_article,https://www.medrxiv.org/content/10.1101/2020.08.26.20180968v1,,,,,,,,
North America ,USA,Louisiana: Jefferson and Orleans Parishes,NA,NA,SeroTracker,advanced economy,,https://wwwnc.cdc.gov/eid/article/26/11/20-3029_article,https://papers.ssrn.com/sol3/papers.cfm?abstract_id=3633166,https://www.medrxiv.org/content/10.1101/2020.06.23.20138321v1,,,,,,,
North America ,USA,Massachusetts: Boston (districts),NA,NA,Google,advanced economy,insufficient information about sample design,https://www.boston.gov/news/results-released-antibody-and-covid-19-testing-boston-residents,https://www.wbur.org/commonhealth/2020/05/15/boston-coronavirus-antibody-testing,,,,,,,,
North America ,USA,Massachusetts: Holyoke,NA,NA,SeroTracker,advanced economy,,https://www.holyoke.org/documents/city-of-holyoke-serosurvey-report/,https://globalhealth.massgeneral.org/holyoke-covid-19-community-antibody-study-takeaways-an-interview-with-ryan-paxton-mph/,,,,,,,,
North America ,USA,Missouri: St. Louis,NA,NA,Google,advanced economy,insufficient information about assay,https://stlcorona.com/news/media-advisory-112320/,from 6:12  :  https://www.facebook.com/CountyExecutiveSamPage/videos/3239818066123836/?notif_id=1606141894419469&notif_t=live_video_explicit&ref=notif,https://stlouiscountymo.gov/test/county-executive1/county-executive-press-releases/stl-county-covid-19-survey/,https://infectiousdiseases.wustl.edu/washington-university-st-louis-county-collaborate-on-covid-19-survey/,,,,,,
North America ,USA,Nevada: Washoe County,NA,NA,SeroTracker,advanced economy,,https://www.washoecounty.us/outreach/2020/07/2020-07-08-jic-update-0708.php,https://www.washoecounty.us/health/files/ephp/communicable-diseases/Seroprevalence_7.7.2020_FINAL.pdf,assay:  https://www.silversummithealthplan.com/content/dam/centene/Nevada/Medicaid/PDFs/COVID-19%20Testing%20Strategy.pdf [with: https://med.unr.edu/news/archive/2020/nsphl-antibody-testing ],,,,,,,
North America ,USA,New Jersey: Essex County,NA,NA,SeroTracker,advanced economy,,https://www.medrxiv.org/content/10.1101/2021.03.02.21252766v1.full-text,https://www.newswise.com/coronavirus/rutgers-launches-covid-19-seroprevalence-study-in-essex-county,https://nj1015.com/study-of-nj-shoppers-suggests-covid-tests-reveal-half-the-spread/,,,,,,,
North America ,USA,New York state,NA,NA,SeroTracker,advanced economy,non-representative sample: sampling shoppers,https://www.ncbi.nlm.nih.gov/pmc/articles/PMC7297691/,https://www.governor.ny.gov/news/amid-ongoing-covid-19-pandemic-governor-cuomo-announces-results-completed-antibody-testing,video from 7:56 to 10:31 : https://www.governor.ny.gov/news/governor-cuomo-announces-us-open-be-held-without-fans-august-31st-september-13th,http://archive.is/jrri5,,,,,,
North America ,USA,"New York City (only returned samples, not self-reported samples)",NA,NA,SeroTracker,advanced economy,,https://academic.oup.com/jid/advance-article/doi/10.1093/infdis/jiab296/6292145,,,,,,,,,
North America ,USA,Ohio,NA,NA,Google,advanced economy,,include all 39 seropositives in seroprevalence to address seroreversion: https://www.pnas.org/content/118/26/e2023947118,https://arxiv.org/abs/2011.09033,https://coronavirus.ohio.gov/static/dashboards/prevalence-covid19-ohioadults.pdf,https://u.osu.edu/ocap/,https://u.osu.edu/ocap/faqs/,,,,,
North America ,USA,Rhode Island,NA,NA,SeroTracker,advanced economy,,https://ajph.aphapublications.org/doi/10.2105/AJPH.2020.306115  (  https://scholar.google.com/scholar?hl=en&as_sdt=0%2C36&q=%E2%80%9CAs+of+May+31%2C+Rhode+Island+had+reported+827+cumulative+lab-confirmed%E2%80%9D&btnG=  ),slide 6: https://ri-department-of-health-covid-19-response-demogr-a3f82-rihealth.hub.arcgis.com/,https://www.ri.gov/press/view/38594,https://twitter.com/RIHEALTH/status/1288119090859479042,https://twitter.com/RIHEALTH/status/1272134777785798657,,,,,
North America ,USA,"Texas: Dallas, Tarrant Counties",NA,NA,Google,advanced economy,insufficient information about assay,https://s3-us-west-2.amazonaws.com/utsw-patientcare-web-production/documents/DFWCPS_Update_01.12.21_EN_1_Pager.pdf,https://utswmed.org/covidstudy/updates/,https://utswmed.org/covidstudy/,https://utswmed.org/prevalence-study/,https://dallascounty.civicweb.net/document/647753/DFW%20COVID-19%20Community%20Prevalence%20Study.pdf?handle=C3700473AA274792B9E7458073691F38,https://www.utsouthwestern.edu/newsroom/articles/year-2020/dfw-covid-prevalence-study.html,,,,
North America ,USA,Texas: Harris County,NA,NA,SeroTracker,advanced economy,insufficient information about assay,https://publichealth.harriscountytx.gov/Portals/27/Documents/HCPH%20Antibody%20Results%20NR.pdf?ver=ZkoB5qeX0P1G--8gfGH8fg%3d%3d,https://twitter.com/hcphtx/status/1327299711120928774,,"https://twitter.com/hcphtx  ,  https://covid-harriscounty.hub.arcgis.com/pages/cumulative-data",,,,,,
North America ,USA,Texas: Houston,NA,NA,SeroTracker,advanced economy,,https://academic.oup.com/jid/advance-article/doi/10.1093/infdis/jiab203/6258999,https://kinder.rice.edu/houston-health-department-antibody-testing-survey,https://news.rice.edu/2020/12/14/antibody-study-suggests-covid-19-infections-underestimated/,http://www.houstontx.gov/health/NewsReleases/houstons-covid-19-infection-rate-could-be-four-times-higher.html,https://kinder.rice.edu/urbanedge/2020/09/17/Covid-19-antibody-testing-Houston-health,https://houstonemergency.org/covid-19-antibody-testing-survey/,,,,
North America ,USA,"Utah: Cache County, Washington county, etc.",NA,NA,Google,advanced economy,,"pages 6, 11, 12, 27 - 30: https://issuu.com/ecclesschool/docs/utah_hero_report_11.24.20_gardner_at_front",https://issuu.com/ecclesschool/docs/herosheet_nov2020_final,,,,,,,,
North America ,USA,"Utah: Davis, Salt Lake, Summit, and Utah counties",NA,NA,SeroTracker,advanced economy,,https://wwwnc.cdc.gov/eid/article/27/11/20-4435_article,"pages 6, 14, 15, 19-23: https://issuu.com/ecclesschool/docs/utah_hero_report_11.24.20_gardner_at_front",https://www.medrxiv.org/content/10.1101/2020.10.26.20219907v1,https://www.youtube.com/watch?v=1MLVb26qfEI&t=1937 ,https://www.medrxiv.org/content/10.1101/2021.01.29.20248797v1.full-text,https://www.aruplab.com/news/6-29-2020/Utah-hero-project,https://healthcare.utah.edu/publicaffairs/news/2020/07/utah-hero-project-phase-1.php,https://gomb.utah.gov/wp-content/uploads/2020/06/HERO-Project-Phase-One-Briefing.pdf,,
North America ,USA,Utah: Provo (in Utah County) + West Salt Lake region (phase 2) +  Salt Lake County (phase 3),NA,NA,Google,advanced economy,,from 8:37 to 10:14 :  https://eccles.utah.edu/utah-hero/,,,,,,,,,
North America ,USA,Vermont (northwestern region),NA,NA,SeroTracker,advanced economy,non-representative sample,https://publichealth.jmir.org/2021/1/e24320/,https://www.med.uvm.edu/com/news/2021/01/19/van_den_broek-altenburg_colleagues_report_that_without_messaging_masks_could_lead_to_more_covid-19_spread,,,,,,,,
North America ,USA,Washington: King County (random sample only),NA,NA,SeroTracker,advanced economy,,https://www.kingcounty.gov/depts/health/covid-19/data/~/media/depts/health/communicable-diseases/documents/C19/serosurvey-summary-covid19.ashx,https://www.kingcounty.gov/depts/health/covid-19/data/~/media/depts/health/communicable-diseases/documents/C19/serosurvey-report-covid19.ashx,https://kingcounty.gov/depts/health/covid-19/seroprevalence.aspx,https://www.kingcounty.gov/depts/health/covid-19/seroprevalence-study.aspx,page 9: http://www.co.cowlitz.wa.us/DocumentCenter/View/20793/8122020-Cowlitz-County-COVID-update-to-Board-of-County-Commissioners,,,,,
North America ,USA,Wisconsin,NA,NA,SeroTracker,advanced economy,,https://www.medrxiv.org/content/10.1101/2020.12.18.20248479v1,https://www.medrxiv.org/content/10.1101/2021.03.15.21253478v1.full-text,https://www.wisbusiness.com/2020/uw-health-statewide-study-suggests-about-1-6-of-the-state-had-covid-19-antibodies-in-july/,https://www.med.wisc.edu/news-and-events/2020/december/wisconsin-data-show-recent-covid-infection-surge/,https://www.dhs.wisconsin.gov/news/releases/061720.htm,data request form: https://show.wisc.edu/our-data/accessing-data/,data access: https://show.wisc.edu/covid-19/covid-19-projects/covid-19-public-use-data/,,,
Americas,Puerto Rico,national,NA,NA,SeroTracker,advanced economy,,https://sites.google.com/view/casperpr/an%C3%A1lisis-y-resultados?authuser=0,page 4: https://issuu.com/vocero.com/docs/v12262020,https://www.cienciapr.org/en/external-news/inicia-el-primer-estudio-de-seroprevalencia-del-covid-19-en-puerto-rico,https://www.facebook.com/PRPublicHealthTrust/videos/salud-p%C3%BAblica-al-mediod%C3%ADa-18-de-noviembre-de-2020/898964470649725/,,,,,,
Latin America,Bolivia,Chuquisaca,-64.45,-20,Google,insufficient information about sample design,,https://www.facebook.com/radioencuentrosucre/videos/seg%C3%BAn-estudio-de-prevalencia-del-covid-19-en-el-departamento-chuquisaca-esta-con/1075186426251521/,https://ar-ar.facebook.com/GADCH1/videos/1672282426287538/,https://correodelsur.com/local/20201022_en-chuquisaca-27-de-cada-100-personas-se-infectaron-de-covid-19.html,https://www.minsalud.gob.bo/4818-covid-19-estudio-de-seroprevalencia-se-realiza-en-12-municipios-de-chuquisaca,,,,,,
Latin America,Bolivia,Potosí,-66.67,-20.67,Google,insufficient information about assay,,https://www.youtube.com/watch?v=YhrxQV026IE,https://www.facebook.com/521793244850336/videos/924582051379606/,https://ms-my.facebook.com/AzucenaFuertesPotosi/videos/webinar/4154134014657535/,,,,,,,
Latin America,Brazil,National (including 23 subnational studies),-52,-10,SeroTracker,use of unreliable assay,,https://iris.paho.org/bitstream/handle/10665.2/52948/v44e1352020.pdf?sequence=1&isAllowed=y,https://www.thelancet.com/journals/langlo/article/PIIS2214-109X(20)30387-9/fulltext,,,,,,,,
Latin America,Brazil,Ceará: Fortaleza,NA,NA,SeroTracker,insufficient information about assay,,https://www.fortaleza.ce.gov.br/images/COVID_INQU%C3%89RITO_19062020.pdf,https://www.cmfor.ce.gov.br/2020/06/22/covid-19-370-mil-pessoas-imunes-e-queda-do-numero-de-obitos-sao-divulgados-em-estudo-da-sms-e-sesa/,WONDFO assay likely used:  https://www.ceara.gov.br/2020/06/19/pesquisa-estima-que-370-mil-fortalezenses-ja-tem-anticorpos-contra-covid-19/,,,,,,,
Latin America,Brazil,Espírito Santo,NA,NA,SeroTracker,use of unreliable assay,,https://saude.es.gov.br/Inquerito_Sorologico,https://www.al.es.gov.br/appdata/anexos_internet/portal/conteudo/documentos/com_saude/2020/Resultados_inquerito_fase_2_etapa_1.3.8.pdf,https://saude.es.gov.br/Media/sesa/coronavirus/Inqu%C3%A9rito%20Sorol%C3%B3gico/SESA%20ASSCOM%20Fase%201%20Inquerito%20Sorologico.pptx,https://www.medrxiv.org/content/10.1101/2020.06.13.20130559v1,INQUÉRITO SOROLÓGICO on pages 21 - 24: https://saude.es.gov.br/Media/sesa/coronavirus/Boletins/Boletim%20Covid-19_06.pdf,https://saude.es.gov.br/Media/sesa/coronavirus/Notas%20T%C3%A9cnicas/NOTA%20TE%CC%81CNICA%20COVID.19%20N.%2043.20.%20Relat%C3%B3rio%20do%20inqu%C3%A9rito%20sorol%C3%B3gico%20do%20ES.pdf,INQUÉRITO SOROLÓGICO on pages 20 - 24: https://saude.es.gov.br/Media/sesa/coronavirus/Boletins/Boletim%20Covid-19_07.pdf,,,
Latin America,Brazil,Goiás: Anápolis,NA,NA,Google,use of unreliable assay,,http://www.anapolis.go.gov.br/portal/arquivos/files/Nota%20T%C3%A9cnica%20_%20preliminar%20_%20Inqu%C3%A9rito%20Epidemiol%C3%B3gico%20-%20COVID%20-15%20%2006.pdf,,,,,,,,,
Latin America,Brazil,Goiás: Goiânia,NA,NA,SeroTracker,insufficient information about assay,,correct numbering of phases: https://www.youtube.com/watch?v=Cy0Y9q802DM&t=2858s,https://www.goiania.go.gov.br/inquerito-aponta-que-1-das-pessoas-ja-tiveram-covid-19-em-goiania/,WONDFO: https://ar-ar.facebook.com/prefeitura.goiania/videos/259453655240449/,,,,,,,
Latin America,Brazil,Goiás: Quirinópolis,NA,NA,Google,non-representative sample,,https://ohirjournal.com/article/view/4206,http://www.ueg.br/noticia/55281,,,,,,,,
Latin America,Brazil,Pará,NA,NA,Google,insufficient information about assay,,https://agenciapara.com.br/noticia/21191/,WONDFO:  https://agenciapara.com.br/noticia/20623/,https://g1.globo.com/pa/para/noticia/2020/07/31/pesquisa-epidemiologica-aponta-que-mais-de-21percent-da-populacao-em-52-municipios-paraenses-ja-foi-infectada-com-coronavirus.ghtml,,,,,,,
Latin America,Brazil,Paraíba,NA,NA,Google,insufficient information about assay,,https://paraiba.pb.gov.br/noticias/relatorio-final-do-inquerito-sorologico-aponta-que-10-da-populacao-ja-teve-contato-com-o-coronavirus,https://paraiba.pb.gov.br/noticias/continuar-cuidando-relatorio-preliminar-aponta-que-9-3-dos-paraibanos-ja-foram-infectados-pelo-coronavirus,https://paraiba.pb.gov.br/noticias/secretaria-de-saude-inicia-inquerito-sorologico-em-130-cidades-da-paraiba,https://paraiba.pb.gov.br/noticias/continuar-cuidando-pesquisa-inicia-coletas-da-ultima-semana-de-inquerito-nesta-sexta-feira,WONDFO assay likely used:  https://paraiba.pb.gov.br/noticias/governo-distribui-mais-45-2-mil-testes-para-todos-os-municipios-paraibanos,possible antibody test:  https://paraiba.pb.gov.br/noticias/paraiba-comeca-a-realizar-testes-rapidos-na-populacao-na-sexta-feira,João Pessoa trial phase: https://www.joaopessoa.pb.gov.br/?s=soropreval%C3%AAncia,,,
Latin America,Brazil,Pernambuco: Fernando de Noronha,NA,NA,SeroTracker,use of unreliable assay,,https://www.medrxiv.org/content/10.1101/2020.10.22.20216010v1.full-text,https://www2.camara.leg.br/atividade-legislativa/comissoes/comissoes-temporarias/externas/56a-legislatura/enfrentamento-pandemia-covid-19/apresentacoes-em-eventos/PauloGoesUFPE.pdf/view,from 49:04 - 1:03:44 : https://www.youtube.com/watch?t=3&v=UXKsj5H1lCg,,,,,,,
Latin America,Brazil,Piauí,NA,NA,Google,use of unreliable assay,,https://www.pi.gov.br/wp-content/uploads/2020/07/9_ONDA_APR_COV_PDF.pdf,https://www.pi.gov.br/noticias/taxa-de-transmissibilidade-do-coronavirus-cai-de-087-para-074-no-piaui/,https://www.pi.gov.br/wp-content/uploads/2020/07/Inqu%C3%A9rito-Soroepidemiol%C3%B3gico-30-06.pdf,,,,,,,
Latin America,Brazil,Piauí: Bom Jesus,NA,NA,SeroTracker,insufficient information about assay,,https://portalpontox.com/wp-content/uploads/2020/06/PESQUISA-BOM-JESUS-COVID-24a26-06.2020.pdf,,,,,,,,,
Latin America,Brazil,Piauí: Teresina municipality,NA,NA,SeroTracker,use of unreliable assay,,https://www.ncbi.nlm.nih.gov/pmc/articles/PMC7341829/,,,,,,,,,
Latin America,Brazil,Rio de Janeiro state: Rio de Janeiro city,NA,NA,Google,insufficient information about assay,,https://prefeitura.rio/saude/prefeitura-divulga-resultado-da-primeira-etapa-de-pesquisa-sobre-covid-19-em-comunidades-cariocas/,https://www.arcgis.com/home/webmap/viewer.html?webmap=85865c2d8bdf423d946f026e634d7155,https://prefeitura.rio/rio-faz/prefeitura-do-rio-inicia-quarta-etapa-da-testagem-para-covid-19-em-comunidades-cariocas/,possible assay used:  https://prefeitura.rio/cidade/coronavirus-veja-as-medidas-adotadas-pela-prefeitura-do-rio-de-janeiro-nesta-sexta-feira-28-08-contra-a-pandemia/,possible assay used:  https://prefeitura.rio/cidade/prefeitura-do-rio-inicia-a-terceira-etapa-do-teste-rapido-para-covid-19-em-comunidades/,,,,,
Latin America,Brazil,Rio Grande do Sul: Lajeado,NA,NA,SeroTracker,use of unreliable assay,,https://www.ncbi.nlm.nih.gov/pmc/articles/PMC7493765/,,,,,,,,,
Latin America,Brazil,Santa Catarina: Joinville,NA,NA,SeroTracker,use of unreliable assay,,https://www.medrxiv.org/content/10.1101/2021.02.08.21251009v1.full,,,,,,,,,
Latin America,Brazil,São Paulo state: Atibaia,NA,NA,Google,insufficient information about assay,,http://www.prefeituradeatibaia.com.br/noticia/saude-visita-residencias-estudo-covid/,http://www.prefeituradeatibaia.com.br/noticia/segunda-etapa-estudo-covid/,,,,,,,,
Latin America,Brazil,São Paulo state: Cajamar,NA,NA,SeroTracker,non-representative sample,sampling shoppers,https://cajamar.sp.gov.br/noticias/2020/08/12/secretaria-de-saude-divulga-balanco-da-pesquisa-de-busca-ativa-de-anticorpos-para-sars-cov-2/,https://cajamar.sp.gov.br/noticias/2020/07/02/pesquisa-de-soroprevalencia-da-covid-19-fara-a-segunda-fase-de-exames-em-cajamar-e-regiao/,,,,,,,,
Latin America,Brazil,São Paulo state: Campinas,NA,NA,SeroTracker,use of unreliable assay,,https://covid-19.campinas.sp.gov.br/sites/covid-19.campinas.sp.gov.br/files/pesquisas/I-Inquerito-soroepidemiologico-covid-19-campinas-2020.pdf,https://covid-19.campinas.sp.gov.br/prefeitura-de-campinas-apresenta-segundo-inqu-rito-sorol-gico-da-covid-19,from 23:41 - 53:38 : https://www.youtube.com/watch?v=ZK4VX1QqUCU&t=1421s,,,,,,,
Latin America,Brazil,São Paulo state: Ribeirão Preto,NA,NA,SeroTracker,use of unreliable assay,,https://www.scielo.br/j/rsbmt/a/Yq5z8RHzZsJXHR5XwsnjTgh/?lang=en,,,,,,,,,
Latin America,Brazil,São Paulo state: São Carlos,NA,NA,Google,insufficient information about assay,,https://www.sciencedirect.com/science/article/pii/S1413867020302890?via%3Dihub,https://digitalposter.com.br/infectologia-paulista/aula.php?id=102,pages 18 - 19: http://servicos.saocarlos.sp.gov.br/licitacao/arquivos-resumos/06-08-2020-06:09:20-pm-8890-2215--Resumo-.pdf,,,,,,,
Latin America,Brazil,"São Paulo state: São Paulo city, Baixada Santista Metropolitan Area",NA,NA,SeroTracker,use of unreliable assay,,https://preprints.scielo.org/index.php/scielo/preprint/view/1270,https://www.medrxiv.org/content/10.1101/2020.08.28.20184010v1,https://www.unifesp.br/reitoria/dci/releases/item/4570-estudo-inedito-reune-dados-sobre-sars-cov-2-na-baixada-santista,https://www.santos.sp.gov.br/static/files_www/files/portal_files/epicobs-resultados-fase-1-preliminares-04-05-20_3.pdf,,,,,,
Latin America,Brazil,Sergipe,NA,NA,SeroTracker,use of unreliable assay,,https://doi.org/10.1017/S0950268821001163,https://www.researchgate.net/publication/350976274_Evolucao_da_Prevalencia_de_Infeccao_por_SARS-CoV-2_em_Sergipe_Resultados_da_Terceira_Fase_18_de_fevereiro_a_30_de_marco_de_2021,OUTDATED: http://radioufs.ufs.br/conteudo/65751-ufs-apresenta-resultados-da-primeira-fase-de-testes-da-covid-19-no-ambito-do-projeto-episergipe,OUTDATED: http://radioufs.ufs.br/uploads/content_attach/path/30299/Nota_T_cnica_1a_Fase_do_EpiSergipe_20_08.pdf,OUTDATED: http://www.ufs.br/conteudo/66456-ufs-apresenta-resultados-da-segunda-fase-de-testes-da-covid-19-no-ambito-do-projeto-episergipe,OUTDATED: http://www.ufs.br/conteudo/66971-projeto-episergipe-conclui-terceira-fase-de-testes-da-covid-19-em-15-municipios,,,,
Latin America,Brazil,Sergipe: 10 most populous cities,NA,NA,SeroTracker,non-representative sample,sampling shoppers,https://www.ncbi.nlm.nih.gov/pmc/articles/PMC7541966/,,,,,,,,,
Latin America,Brazil,Tocantins: Palmas,NA,NA,Google,insufficient information about assay,,https://ww2.uft.edu.br/index.php/ultimas-noticias/28335-uft-e-prefeitura-de-palmas-realizam-pesquisa-de-anticorpos-para-coronavirus-na-populacao,page 38: https://coronavirus.palmas.to.gov.br/storage/reports/tWmPBmF3uQRGK4FHcluNOWmfnrjS16x1PUDhknMZ.pdf,WONDFO assay possibly used:  https://www.to.gov.br/saude/noticias/governo-inicia-a-distribuicao-dos-testes-rapidos-para-municipios/6shkhvieqxz7,,,,,,,
Latin America,Ecuador,Atahualpa,-68.09,-19.12,SeroTracker,non-representative sample,excludes those younger than 40,https://academic.oup.com/cid/advance-article/doi/10.1093/cid/ciaa1055/5876901,https://www.sciencedirect.com/science/article/pii/S1201971220306305#bib0030,phase 2: https://www.tandfonline.com/doi/full/10.1080/20477724.2020.1826152,,,,,,,
Latin America,Honduras,41 municipalities,-86.5,15,SeroTracker,non-representative sample,non-probabilistic selection of municipalities + localities,https://revistas.ucr.ac.cr/index.php/psm/article/view/43261/46175,,,,,,,,,
Latin America,Mexico,Nuevo Leon,-99.92,-25.55,SeroTracker,non-representative sample,selection of those at a subway,https://onlinelibrary.wiley.com/doi/10.1002/jmv.27131,,,,,,,,,
Latin America,Nicaragua,León (within Perla Maria Norori Health District),-86.9,12.45,SeroTracker,non-representative sample,narrow birth cohort,https://www.medrxiv.org/content/10.1101/2021.02.25.21252447v1.full,cohort description: https://journals.lww.com/pidj/Fulltext/2021/03000/Risk_Factors_and_Clinical_Profile_of.9.aspx?casa_token=SWV8SEc6E-AAAAAA:a3cN9ihuRuuNK4NeG-EA_0tYskkuOL66VH6VDWaTo5TAaJVcVTsWqGDqanBZCnuzddY_GrTy-C6DcaUCrk_Bomvl,,,,,,,,
Latin America,Panama,10 townships,-80,9,Google,insufficient information about serology results,,http://www.gorgas.gob.pa/wp-content/uploads/2021/03/Seroprevalencia-del-SARS-CoV-2-en-Panama_Informe-Preliminar_1.pdf,https://twitter.com/JeanCarrPaul/status/1367135723401457664,http://www.gorgas.gob.pa/,https://twitter.com/JeanCarrPaul/status/1367112163266068483,https://twitter.com/JeanCarrPaul/status/1367136070635319297,https://www.youtube.com/watch?v=qae_v2GTKFY&t=46s,,,,
Latin America,Peru,Ucayali,-75,-7.35,Google,insufficient information about sample design,,https://www.facebook.com/region.deucayali/posts/2800216496963368,https://impetu.pe/2020/12/10/el-50-de-los-ucayalinos-no-se-habria-contagiado-de-covid-19/,https://www.dge.gob.pe/estudio_prevalencia_covid/,https://www.facebook.com/DiresaUcayali2020/videos/trabajo_covid19-la-diresa-ucayali-a-trav%C3%A9s-del-%C3%A1rea-de-epidemiolog%C3%ADa-realizar%C3%A1-e/699635314263728/,http://www.regionucayali.gob.pe/index.php/goreu-informa/notas-de-prensa/item/1095-investigaran-sobre-cuanto-afecto-el-covid-19-en-la-region-ucayali,https://gestion.pe/peru/en-loreto-y-ucayali-seroprevalencia-de-coronavirus-superaria-el-doble-del-promedio-nacional-noticia/?ref=gesr,http://www.regionucayali.gob.pe/index.php/goreu-informa/notas-de-prensa/item/901-minsa-realizara-estudio-de-prevalencia-en-ucayali,,,
Europe,U.K.,"England (REACT-2), national",NA,NA,SeroTracker,advanced economy,,https://www.nature.com/articles/s41467-021-21237-w,https://www.thelancet.com/journals/lanepe/article/PIIS2666-7762(21)00075-2/fulltext,https://www.medrxiv.org/content/10.1101/2020.08.12.20173690v2,https://www.imperial.ac.uk/medicine/research-and-impact/groups/react-study/the-react-2-programme/,https://www.medrxiv.org/content/10.1101/2020.10.26.20219725v1.full,https://www.imperial.ac.uk/medicine/research-and-impact/groups/react-study/real-time-assessment-of-community-transmission-findings/,https://www.imperial.ac.uk/medicine/research-and-impact/groups/react-study/,https://www.bmj.com/content/372/bmj.n423,,
Europe,U.K.,"England (ONS), national",NA,NA,SeroTracker,advanced economy,,https://www.ons.gov.uk/peoplepopulationandcommunity/healthandsocialcare/conditionsanddiseases/articles/coronaviruscovid19infectionsurveyantibodydatafortheuk/3february2021,https://www.ons.gov.uk/peoplepopulationandcommunity/healthandsocialcare/conditionsanddiseases/bulletins/coronaviruscovid19infectionsurveypilot/28may2020#antibody-tests-for-covid-19,https://www.ndm.ox.ac.uk/covid-19/covid-19-infection-survey/results/weekly-updates,https://www.ons.gov.uk/peoplepopulationandcommunity/healthandsocialcare/conditionsanddiseases/methodologies/covid19infectionsurveypilotmethodsandfurtherinformation,https://www.thelancet.com/journals/lanpub/article/PIIS2468-2667(20)30282-6/fulltext,,,,,
Europe,U.K.,"Great Britain (UK BioBank), 3 national studies",NA,NA,SeroTracker,advanced economy,,figure 1 and page 16:  https://www.ukbiobank.ac.uk/media/x0nd5sul/ukb_serologystudy_report_revised_6months_jan21.pdf,https://www.gov.uk/government/statistics/uk-biobank-covid-19-antibody-study-final-results,https://www.ukbiobank.ac.uk/media/s3af0k5q/ukb_serologystudy_month1_report.pdf,https://www.ukbiobank.ac.uk/learn-more-about-uk-biobank/covid-19-hub,https://www.ukbiobank.ac.uk/enable-your-research/about-our-data/covid-19-data,https://www.gov.uk/government/publications/uk-biobank-covid-19-seroprevalence-study-round-1-results/uk-biobank-covid-19-seroprevalence-study-round-1-results#future-results,,,,
Europe,Ireland,national,NA,NA,SeroTracker,advanced economy,,https://www.hpsc.ie/a-z/respiratory/coronavirus/novelcoronavirus/scopi/,seroreversion follow-up: https://academic.oup.com/jid/advance-article/doi/10.1093/infdis/jiab346/6311910,,,,,,,,
Europe,Jersey,national,NA,NA,SeroTracker,advanced economy,,https://www.gov.je/SiteCollectionDocuments/Government%20and%20administration/R%20Prevalence%20of%20antibodies%202020508%20SJ.pdf,https://www.gov.je/News/2020/Pages/Antibody-survey-report-published.aspx,https://www.gov.je/Health/Coronavirus/Health/Pages/COVID19TestingProgramme.aspx,,,,,,,
Europe,U.K.,an orthodox Jewish community,NA,NA,SeroTracker,advanced economy,insufficient information about sample design,https://www.thelancet.com/journals/lanepe/article/PIIS2666-7762(21)00104-6/fulltext,https://www.medrxiv.org/content/10.1101/2021.02.01.21250839v1.full-text,,,,,,,,
Europe,U.K.,"Northern Ireland (ONS), national",NA,NA,SeroTracker,advanced economy,,https://www.ons.gov.uk/peoplepopulationandcommunity/healthandsocialcare/conditionsanddiseases/articles/coronaviruscovid19infectionsurveyantibodydatafortheuk/3february2021,https://www.ons.gov.uk/peoplepopulationandcommunity/healthandsocialcare/conditionsanddiseases/articles/coronaviruscovid19infectionsinthecommunityinengland/november2020,https://www.ndm.ox.ac.uk/covid-19/covid-19-infection-survey/results/weekly-updates,https://www.ons.gov.uk/peoplepopulationandcommunity/healthandsocialcare/conditionsanddiseases/methodologies/covid19infectionsurveypilotmethodsandfurtherinformation,https://www.thelancet.com/journals/lanpub/article/PIIS2468-2667(20)30282-6/fulltext,,,,,
Europe,U.K.,"Scotland (ONS), national",NA,NA,SeroTracker,advanced economy,,https://www.ons.gov.uk/peoplepopulationandcommunity/healthandsocialcare/conditionsanddiseases/articles/coronaviruscovid19infectionsurveyantibodydatafortheuk/3february2021,https://www.ons.gov.uk/peoplepopulationandcommunity/healthandsocialcare/conditionsanddiseases/articles/coronaviruscovid19infectionsinthecommunityinengland/november2020,https://www.ndm.ox.ac.uk/covid-19/covid-19-infection-survey/results/longer-articles,https://www.ons.gov.uk/peoplepopulationandcommunity/healthandsocialcare/conditionsanddiseases/methodologies/covid19infectionsurveypilotmethodsandfurtherinformation,https://www.thelancet.com/journals/lanpub/article/PIIS2468-2667(20)30282-6/fulltext,,,,,
Europe,U.K.,"Wales (ONS), national",NA,NA,SeroTracker,advanced economy,,https://www.ons.gov.uk/peoplepopulationandcommunity/healthandsocialcare/conditionsanddiseases/articles/coronaviruscovid19infectionsurveyantibodydatafortheuk/3february2021,https://www.ons.gov.uk/peoplepopulationandcommunity/healthandsocialcare/conditionsanddiseases/articles/coronaviruscovid19infectionsinthecommunityinengland/november2020,https://www.ndm.ox.ac.uk/covid-19/covid-19-infection-survey/results/weekly-updates,https://www.ons.gov.uk/peoplepopulationandcommunity/healthandsocialcare/conditionsanddiseases/methodologies/covid19infectionsurveypilotmethodsandfurtherinformation,https://www.thelancet.com/journals/lanpub/article/PIIS2468-2667(20)30282-6/fulltext,,,,,
Europe,Denmark,national (SSI),NA,NA,SeroTracker,advanced economy,,https://link.springer.com/article/10.1007%2Fs10654-021-00796-8,https://www.medrxiv.org/content/10.1101/2021.04.07.21254703v1,https://files.ssi.dk/notat_foreloebige_resultater_pilotundersoegelse_seropraevalens_COVID-19_29_6_2020,https://covid19.ssi.dk/overvagningsdata/undersoegelser/praevalensundersogelsen,,,,,,
Europe,Denmark,"national (""We Test Denmark"")",NA,NA,Twitter,advanced economy,,adjust sensitivity by proportion of seropositives among PCR-positives:  https://www.medrxiv.org/content/10.1101/2021.08.10.21261777v1,https://www.vitesterdanmark.dk/,https://www.ssi.dk/aktuelt/nyheder/2020/nasten-en-halv-million-danskere-deltog-i-vi-tester-danmark-nu-gar-fase-2-af-projektet-gar-i-gang,https://helsefonden.dk/en/node/550,https://hjerteforeningen.dk/2020/10/vi-tester-danmark-deltag-og-goer-en-forskel-for-ogsaa-hjertepatienterne/,,,,,
Europe,Denmark,Faroe Islands,NA,NA,SeroTracker,advanced economy,,https://wwwnc.cdc.gov/eid/article/26/11/20-2736_article,seroreversion follow-up: https://www.medrxiv.org/content/10.1101/2021.04.19.21255720v2,,,,,,,,
Europe,Finland,5 hospital regions,NA,NA,Twitter,advanced economy,,weeks 16 - 35  :  https://web.archive.org/web/20201028052918/https://www.thl.fi/roko/cov-vaestoserologia/sero_report_weekly_en.html,https://thl.fi/en/web/thlfi-en/-/thl-publishes-weekly-results-of-population-study-on-coronavirus-antibodies,https://thl.fi/en/web/thlfi-en/research-and-development/research-and-projects/serological-population-study-of-the-coronavirus-epidemic/immunological-methods-used-in-the-study,discussed in: https://www.medrxiv.org/content/10.1101/2020.07.13.20153163v3.full,seroreversion for the neutralization assay: https://thl.fi/en/web/thlfi-en/-/thl-s-study-majority-of-people-who-have-had-a-coronavirus-infection-retain-antibodies-for-over-six-months,,,,,
Europe,Iceland,greater Reykjavik area (random sample only),NA,NA,SeroTracker,advanced economy,,"random sample on page 9, table S4, and table S6 of supplementary appendix 1:  https://www.nejm.org/doi/full/10.1056/NEJMoa2026116",,,,,,,,,
Europe,Norway,national,NA,NA,SeroTracker,advanced economy,,https://www.medrxiv.org/content/10.1101/2021.03.23.21253730v1.full,https://uit.no/nyheter/artikkel?p_document_id=725394,https://uit.no/project/koronaimmunitet,https://www.norceresearch.no/en/news/norce-researchers-contribute-to-the-mapping-of-covid-19-prevalence-and-changes-in-norway,https://norwaytoday.info/everyday/arctic-university-launches-antibody-study-hopes-to-determine-lethality-of-the-virus-in-norway/,,,,,
Europe,Norway,Oslo,NA,NA,Twitter,advanced economy,non-representative sample,week 30 and earlier  : https://web.archive.org/web/20210124021901/https://www.fhi.no/studier/prevalensundersokelser-korona/resultat---moba/,https://www.fhi.no/studier/prevalensundersokelser-korona/introduksjon-til-koronastudiene/,https://www.fhi.no/studier/norflu-korona-antistoff/,https://twitter.com/F_Lund_Johansen/status/1260824310148730881,https://helsedata.no/no/forvaltere/folkehelseinstituttet/moba/,,,,,
Europe,Sweden,Norrbotten County,NA,NA,SeroTracker,advanced economy,,https://web.archive.org/web/20200623071108/http://norrbotten.se/sv/Halsa-och-sjukvard/Smittskydd-i-Norrbotten/Information-om-nya-coronaviruset/The-seroprevalence-of-covid-19-antibodies-in-Norrbotten-County-Sweden/,https://www.norrbotten.se/Halsa-och-sjukvard/Smittskydd-i-Norrbotten/Information-om-nya-coronaviruset/,,,,,,,,
Europe,Sweden,Stockholm County,NA,NA,SeroTracker,advanced economy,,https://www.nature.com/articles/s41467-021-23893-4,https://www.medrxiv.org/content/10.1101/2020.07.01.20143966v1.full,https://www.kth.se/en/aktuellt/nyheter/10-procent-av-stockholmarna-smittade-1.980727,,,,,,,
Europe,Sweden,Stockholm County: Norra Djurgårdsstaden + Tensta areas,NA,NA,SeroTracker,advanced economy,non-representative sample,https://www.tandfonline.com/doi/full/10.1080/20008686.2020.1806505,,,,,,,,,
Europe,Sweden,Stockholm County: Rinkeby-Kista district,NA,NA,Twitter,advanced economy,,https://www.folkhalsomyndigheten.se/publicerat-material/publikationsarkiv/f/forekomsten-av-antikroppar-mot-sars-cov-2-i-stadsdelen-rinkeby-kista-stockholm-2224-juni-2020/,https://www.folkhalsomyndigheten.se/contentassets/2cf102cd299c4382b9a0447dc0626356/forekomsten-antikroppar-rinkeby-kista.pdf,https://www.sll.se/verksamhet/halsa-och-vard/nyheter-halsa-och-vard/2020/06/antikroppstestning-genomfors-i-rinkeby-kista/?_t_id=jn7cuiNjRit3scHO1EqPDA%3d%3d&_t_uuid=FsBLb5TmQNSPZIw7acBlVw&_t_q=Rinkeby-Kista+covid-19&_t_tags=language%3asv%2csiteid%3a8824540f-e7eb-44a0-94f3-c48a0b63798c%2candquerymatch&_t_hit.id=PublicWebv2_Web_Apps_News_NewsItemPageType/_1cf3623a-38d8-4081-a402-35234d0ff5d0_sv&_t_hit.pos=1,,,,,,,
Europe,Austria,national,NA,NA,SeroTracker,advanced economy,insufficient information about assay,http://www.statistik.at/web_de/presse/124959.html,http://www.statistik.at/wcm/idc/idcplg?IdcService=GET_PDF_FILE&dDocName=124957,http://www.statistik.at/web_de/statistiken/menschen_und_gesellschaft/gesundheit/covid19/124846.html,http://www.statistik.at/wcm/idc/idcplg?IdcService=GET_PDF_FILE&dDocName=124958,https://www.bmbwf.gv.at/Ministerium/Presse/20201211.html,https://www.meduniwien.ac.at/web/en/ueber-uns/news/detailseite/2020/news-im-dezember-2020/47-der-oesterreichischen-bevoelkerung-hatten-mitte/ende-oktober-2020-antikoerper-gegen-sars-cov-2/,,,,
Europe,Austria,narrow selection of communities,NA,NA,Twitter,advanced economy,"insufficient information on assay, sample design",http://web.archive.org/web/20200508035617/https://www.bmbwf.gv.at/Themen/Forschung/Aktuelles/COVID-19-Studie.html,http://www.statistik.at/web_de/frageboegen/private_haushalte/validierungsstudie/index.html,http://www.statistik.at/web_de/presse/123051.html,,,,,,,
Europe,Austria,Ischgl,NA,NA,SeroTracker,advanced economy,,https://www.nature.com/articles/s43856-021-00007-1,https://www.medrxiv.org/content/10.1101/2020.08.20.20178533v1,https://videocast.nih.gov/watch%3D38084,https://www.ncbi.nlm.nih.gov/nlmcatalog/101769642,https://www.i-med.ac.at/mypoint/news/746359.html,later phase (not included due to <50% of population): https://www.medrxiv.org/content/10.1101/2021.02.19.21252089v1.full-text,,,,
Europe,Austria,Vienna,NA,NA,SeroTracker,advanced economy,,https://www.nature.com/articles/s41598-021-89711-5,,,,,,,,,
Europe,Austria,Weißenkirchen in der Wachau,NA,NA,SeroTracker,advanced economy,,https://www.medrxiv.org/content/10.1101/2020.11.03.20219121v1.full,https://www.medrxiv.org/content/10.1101/2020.11.20.20232140v1.full,,,,,,,,
Europe,Croatia,National,15.5,45.16,Google,non-representative sample,,personal communication from the authors,https://www.mdpi.com/2076-0817/10/6/774/htm,,,,,,,,
Europe,Czech Republic,6 cities,NA,NA,Twitter,advanced economy,,https://web.archive.org/web/20201104174250/https://covid-imunita.uzis.cz/res/file/prezentace/20200506-dusek.pdf,https://web.archive.org/web/20200629230433/https://covid-imunita.uzis.cz/index.php?pg=o-studii,https://covid-imunita.uzis.cz/res/file/dokumenty/protokol-studie.pdf,https://english.radio.cz/czech-study-shows-extremely-low-level-collective-immunity-covid-19-virus-8101001,https://clinicaltrials.gov/ct2/show/NCT04401085,,,,,
Europe,Estonia,national,NA,NA,SeroTracker,advanced economy,,https://www.ut.ee/et/teadus/koroonaviiruse-levimuse-uuring-covid-19-aktiivne-seire#Antikehad,NOT THE SAME AS THIS RESIDUAL SERA STUDY: https://www.medrxiv.org/content/10.1101/2021.06.06.21258406v1,,,,,,,,
Europe,Estonia,Saaremaa + Tallinn,NA,NA,SeroTracker,advanced economy,unclear if GP practices cover a representative majority of the population in both locations,https://www.sciencedirect.com/science/article/pii/S0264410X2101001X,https://www.medrxiv.org/content/10.1101/2020.10.21.20216820v1.full,https://www.ctm.ee/et/covid-19/koroonaviirus-sars-cov-2-antikehade-serolevimusuuring-eestis-kahe-piirkonna-testuuring/,https://meditsiiniteadused.ut.ee/et/uudised/koroonaviiruse-levimus-arvatust-kumme-korda-suurem,sero-reversion:  https://www.ctm.ee/et/covid-19/korosero-est-1-jareluuring/,sero-reversion:  https://meditsiiniteadused.ut.ee/et/uudised/tartu-ulikooli-teadlaste-uuringust-selgus-sars-cov-2-antikehade-pusivus,,,,
Europe,Lithuania,"Vilnius, Kaunas, Klaipeda, Ukmerge, Taurage, Zarasai",NA,NA,SeroTracker,advanced economy,,https://www.journals.vu.lt/AML/article/view/22344,https://sam.lrv.lt/lt/naujienos/pristatyti-pirminiai-populiacijos-tyrimo-rezultatai,https://www.lrt.lt/en/news-in-english/19/1230480/under-3-percent-of-lithuanian-population-had-coronavirus-study,https://www.lrt.lt/mediateka/irasas/2000121174/tyrimas-atskleide-kad-koronavirusu-persirgo-iki-triju-procentu-tirtu-savivaldybiu-gyventoju,assay may have lower specificity than the study claimed: https://www.ncbi.nlm.nih.gov/pmc/articles/PMC7734239/pdf/rpsp-44-e149.pdf,,,,,
Europe,Poland,Pozna,14.6,51.85,SeroTracker,non-representative sample,,https://www.mdpi.com/2076-393X/9/6/541/htm,https://www.medrxiv.org/content/10.1101/2021.03.29.21254544v1.full,,,,,,,,
Europe,Slovenia,national,NA,NA,SeroTracker,advanced economy,,https://www.sciencedirect.com/science/article/pii/S1198743X21001440,http://file.biolab.si/files/2020-12-11-covid-19-slovenija-porocilo-koncno.pdf,https://www.researchgate.net/publication/342873067_Low_Prevalence_of_Active_and_Past_SARS-CoV-2_Infections_in_Slovenia_A_Nationwide_Population_Study_on_Probability-Based_Sample,https://www.gov.si/en/news/2020-05-06-first-study-carried-out-on-herd-immunity-of-the-population-in-the-whole-territory-of-slovenia/,https://clinicaltrials.gov/ct2/show/NCT04376996,https://www.gov.si/en/news/2020-04-24-national-covid-19-prevalence-survey/,"PCR, but used same sampling framework: https://www.clinicalmicrobiologyandinfection.com/article/S1198-743X(20)30419-5/fulltext",,,
Europe,Russia,National (including 9 subnational studies),37.6,55.75,SeroTracker,non-representative sample,active recruitment of volunteers online; unclear whether >35% of sample is male,https://www.iimmun.ru/iimm/article/view/1684#,https://www.mdpi.com/1999-4915/13/8/1648/htm,,,,,,,,
Europe,Russia,Irkutsk region,NA,NA,SeroTracker,non-representative sample,active recruitment of volunteers online; unclear whether >35% of sample is male,https://journal.microbe.ru/jour/article/view/1370,,,,,,,,,
Europe,Russia,Kaliningrad region,NA,NA,SeroTracker,non-representative sample,active recruitment of volunteers online; unclear whether >35% of sample is male,https://journal.niidi.ru/jofin/article/view/1145,,,,,,,,,
Europe,Russia,"Leningrad region, excludes St. Petersburg",NA,NA,SeroTracker,non-representative sample,active recruitment of volunteers online; unclear whether >35% of sample is male,https://journal.microbe.ru/jour/article/view/1371/1150,https://journal.microbe.ru/jour/article/view/1371,,,,,,,,
Europe,Russia,Murmansk region,NA,NA,SeroTracker,non-representative sample,active recruitment of volunteers online; unclear whether >35% of sample is male,https://hiv.bmoc-spb.ru/jour/article/view/605#,,,,,,,,,
Europe,Russia,Moscow,NA,NA,SeroTracker,non-representative sample,active recruitment of volunteers online; unclear whether >35% of sample is male,https://www.phdynasty.ru/en/catalog/magazines/infectious-diseases/2020/volume-18-issue-4/40419,,,,,,,,,
Europe,Russia,Saratov region,NA,NA,Google,non-representative sample,active recruitment of volunteers online; unclear whether >35% of sample is male,https://journal.microbe.ru/jour/article/view/1413?locale=en_US,,,,,,,,,
Europe,Russia,St. Petersburg,NA,NA,SeroTracker,non-representative sample,active recruitment of volunteers online; unclear whether >35% of sample is male,https://journal.microbe.ru/jour/article/view/1372/1151#,https://journal.microbe.ru/jour/article/view/1372,https://covid19-preprints.microbe.ru/article/56,https://covid19-preprints.microbe.ru/files/62,,,,,,
Europe,Russia,Tatarstan,NA,NA,SeroTracker,non-representative sample,active recruitment of volunteers online; unclear whether >35% of sample is male,https://microbiol.elpub.ru/jour/article/view/940?locale=en_US,,,,,,,,,
Europe,Russia,Tyumen region,NA,NA,SeroTracker,non-representative sample,active recruitment of volunteers online; unclear whether >35% of sample is male,https://microbiol.elpub.ru/jour/article/view/890?locale=en_US#,,,,,,,,,
Europe,Germany,national (Corona-BUND / Forsa),NA,NA,SeroTracker,advanced economy,,https://www.ifo.de/publikationen/2020/monographie-autorenschaft/die-deutschen-und-corona,https://www.rki.de/DE/Content/InfAZ/N/Neuartiges_Coronavirus/AK-Studien/AKS_bestehendeKohorten.html,https://www.ifo.de/node/58999,https://pi-healthsolutions.com/de/forschung-entwicklung/,,,,,,
Europe,Germany,national (SOEP),NA,NA,SeroTracker,advanced economy,,https://jech.bmj.com/content/early/2021/09/27/jech-2021-217653,https://www.medrxiv.org/content/10.1101/2021.06.21.21259001v1.full-text,,,,,,,,
Europe,Germany,5 counties,NA,NA,SeroTracker,advanced economy,,https://papers.ssrn.com/sol3/papers.cfm?abstract_id=3834300,https://www.medrxiv.org/content/10.1101/2021.05.04.21256597v1.full-text,https://www.rki.de/DE/Content/Service/Presse/Pressemitteilungen/2020/05_2020.html,https://hzi-c19-antikoerperstudie.de/,,,,,,
Europe,Germany,Baden-Württemberg: Kupferzell,NA,NA,SeroTracker,advanced economy,,https://www.eurosurveillance.org/content/10.2807/1560-7917.ES.2020.25.47.2001752,https://www.rki.de/DE/Content/Gesundheitsmonitoring/Studien/cml-studie/Factsheet_Kupferzell.html,https://www.rki.de/EN/Content/infections/epidemiology/outbreaks/COVID-19/AK-Studien-english/Sero_General.html,https://www.rki.de/EN/Content/Health_Monitoring/Health_Reporting/GBEDownloadsJ/JoHM_S5_2020_Study_protocol_CORONA_MONITORING_lokal.pdf?__blob=publicationFile,,,,,,
Europe,Germany,Bavaria: Bad Feilnbach ,NA,NA,SeroTracker,advanced economy,,https://www.rki.de/DE/Content/Gesundheitsmonitoring/Studien/cml-studie/Factsheet_Bad_Feilnbach.html,https://www.rki.de/EN/Content/infections/epidemiology/outbreaks/COVID-19/AK-Studien-english/Sero_General.html,https://www.rki.de/EN/Content/Health_Monitoring/Health_Reporting/GBEDownloadsJ/JoHM_S5_2020_Study_protocol_CORONA_MONITORING_lokal.pdf?__blob=publicationFile,,,,,,,
Europe,Germany,Bavaria: Munich,NA,NA,SeroTracker,advanced economy,,https://www.mdpi.com/1660-4601/18/7/3572/htm,https://bmcinfectdis.biomedcentral.com/articles/10.1186/s12879-021-06589-4,http://www.klinikum.uni-muenchen.de/Abteilung-fuer-Infektions-und-Tropenmedizin/download/de/KoCo19/20201207_KoCo10_Epi.pdf,https://papers.ssrn.com/sol3/papers.cfm?abstract_id=3745128,http://www.klinikum.uni-muenchen.de/Abteilung-fuer-Infektions-und-Tropenmedizin/de/COVID-19/KoCo19/index.html,http://www.klinikum.uni-muenchen.de/Abteilung-fuer-Infektions-und-Tropenmedizin/de/COVID-19/KoCo19/FAQ/index.html,https://bmcpublichealth.biomedcentral.com/articles/10.1186/s12889-020-09164-9,https://www.medrxiv.org/content/10.1101/2021.01.13.21249735v1,,
Europe,Germany,Bavaria: Straubing,NA,NA,SeroTracker,advanced economy,,https://www.rki.de/DE/Content/Gesundheitsmonitoring/Studien/cml-studie/Factsheet_Straubing.html,https://www.rki.de/EN/Content/infections/epidemiology/outbreaks/COVID-19/AK-Studien-english/Sero_General.html,https://www.rki.de/EN/Content/Health_Monitoring/Health_Reporting/GBEDownloadsJ/JoHM_S5_2020_Study_protocol_CORONA_MONITORING_lokal.pdf?__blob=publicationFile,,,,,,,
Europe,Germany,Bavaria: Tirschenreuth district,NA,NA,SeroTracker,advanced economy,,https://www.mdpi.com/1999-4915/13/6/1118/htm,https://www.medrxiv.org/content/10.1101/2021.03.29.21254343v1.full-text,https://www.uk-erlangen.de/presse/pressemitteilungen/ansicht/detail/covid-19-immunitaet-im-landkreis-tirschenreuth-1/,https://www.med.fau.de/2020/08/24/covid-19-immunitaet-im-landkreis-tirschenreuth/,https://www.kreis-tir.de/buergerservice/aktuelles/news/news/detail/News/erste-runde-der-blutabnahmen-erfolgreich-abgeschlossen/,https://www.uni-regensburg.de/pressearchiv/pressemitteilung/1066465.html,https://www.kreis-tir.de/fileadmin/user_upload/Landratsamt/20-06-15_Pressetext_AK_Studie_Tirschenreuth.pdf,https://www.kreis-tir.de/fachbereiche/gesundheitsamt/informationen-zum-corona-virus/veroeffentlichungen/,https://www.rki.de/EN/Content/infections/epidemiology/outbreaks/COVID-19/AK-Studien-english/Sero_General.html,
Europe,Germany,Bavaria: Würzburg,NA,NA,Google,advanced economy,insufficient information about sample design,https://www.uni-wuerzburg.de/aktuelles/einblick/single/news/ergebnisse-aus-staab-covid/,https://www.rki.de/DE/Content/InfAZ/N/Neuartiges_Coronavirus/AK-Studien/AKS_bestehendeKohorten.html,https://www.ukw.de/behandlungszentren/dzhi/ambulante-behandlung/staab-covid-programm/,,,,,,,
Europe,Germany,Berlin: Mitte,NA,NA,SeroTracker,advanced economy,,https://www.rki.de/DE/Content/Gesundheitsmonitoring/Studien/cml-studie/Factsheet_Berlin-Mitte.html,https://www.rki.de/EN/Content/infections/epidemiology/outbreaks/COVID-19/AK-Studien-english/Sero_General.html,https://www.rki.de/EN/Content/Health_Monitoring/Health_Reporting/GBEDownloadsJ/JoHM_S5_2020_Study_protocol_CORONA_MONITORING_lokal.pdf?__blob=publicationFile,,,,,,,
Europe,Germany,North Rhine-Westphalia: Bonn,NA,NA,SeroTracker,advanced economy,excludes those younger than 30,https://www.nature.com/articles/s41467-021-22351-5,https://www.medrxiv.org/content/10.1101/2020.08.24.20181206v1,,,,,,,,
Europe,Germany,North Rhine-Westphalia: Gangelt,NA,NA,SeroTracker,advanced economy,,https://www.nature.com/articles/s41467-020-19509-y,https://www.medrxiv.org/content/10.1101/2020.05.04.20090076v2,,,,,,,,
Europe,Germany,Saarland,NA,NA,Google,advanced economy,insufficient information about assay,https://www.cdu-fraktion-saar.de/erste-bilanz-der-antikoerperstudie-saar-vorgestellt/,https://www.sr.de/sr/home/nachrichten/politik_wirtschaft/zwischenergebnis_antikoerperstudie_saarland_100.html,https://www.sr.de/sr/home/nachrichten/politik_wirtschaft/antikoerperstudie_saarland_startet_100.html,https://www.uniklinikum-saarland.de/de/einrichtungen/kliniken_institute/infektionsmedizin/virologie/saarcops/,https://www.rki.de/EN/Content/infections/epidemiology/outbreaks/COVID-19/AK-Studien-english/Sero_General.html,,,,,
Europe,Germany,Thuringia: Neustadt-am-Rennsteig,NA,NA,SeroTracker,advanced economy,,https://www.sciencedirect.com/science/article/pii/S1198743X20307059?via%3Dihub,https://www.medrxiv.org/content/10.1101/2020.07.15.20154112v1,,,,,,,,
Europe,France,national,NA,NA,SeroTracker,advanced economy,,https://www.medrxiv.org/content/10.1101/2021.02.24.21252316v1.full-text,https://drees.solidarites-sante.gouv.fr/etudes-et-statistiques/publications/etudes-et-resultats/article/en-mai-2020-4-5-de-la-population-vivant-en-france-metropolitaine-a-developpe,https://web.archive.org/web/20201123191536/https://drees.solidarites-sante.gouv.fr/IMG/pdf/er1167-en.pdf,used in modelling:  https://www.thelancet.com/journals/lanpub/article/PIIS2468-2667(21)00064-5/fulltext,,,,,,
Europe,France,Bouches-du-Rhône (Blood Establishment),NA,NA,Google,advanced economy,insufficient information about sample design,https://www.mdpi.com/2077-0383/10/13/2942/htm,,,,,,,,,
Europe,France,"Grand Est, Ile-de-France, Nouvelle-Aquitaine",NA,NA,SeroTracker,advanced economy,,https://www.medrxiv.org/content/10.1101/2020.09.16.20195693v1,https://www.sciencedirect.com/science/article/pii/S2666991920000329,https://www.medrxiv.org/content/10.1101/2020.11.06.20227025v1,https://www.youtube.com/watch?v=2pzPZge1euE,used in modelling:  https://www.thelancet.com/journals/lanpub/article/PIIS2468-2667(21)00064-5/fulltext,https://www.clinicaltrials.gov/ct2/show/NCT04392388,,,,
Europe,France,Grand Nancy,NA,NA,SeroTracker,advanced economy,,https://www.mdpi.com/1999-4915/13/6/1076/htm,https://www.medrxiv.org/content/10.1101/2021.02.10.21250862v1.full,https://factuel.univ-lorraine.fr/node/16383,https://clinicaltrials.gov/ct2/show/NCT04448769,https://factuel.univ-lorraine.fr/node/14683,https://ichgcp.net/clinical-trials-registry/NCT04448769,,,,
Europe,France,Perpignan: 3 districts,NA,NA,SeroTracker,advanced economy,,https://www.medrxiv.org/content/10.1101/2021.03.05.21252835v1,https://www.santepubliquefrance.fr/etudes-et-enquetes/scope-une-etude-de-seroprevalence-aupres-d-une-population-vulnerable-de-perpignan,https://www.santepubliquefrance.fr/presse/2020/covid-19-premiers-resultats-d-une-etude-de-seroprevalence-aupres-d-une-population-vulnerable-de-perpignan,,,,,,,
Europe,Luxembourg,national,NA,NA,SeroTracker,advanced economy,non-probabilistic sampling,https://www.medrxiv.org/content/10.1101/2020.05.11.20092916v1,https://researchluxembourg.lu/2020/06/03/con-vince-study-results-second-testing-phase/,https://researchluxembourg.lu/covid-19-taskforce/con-vince/,,,,,,,
Europe,Netherlands,national,NA,NA,SeroTracker,advanced economy,,https://jech.bmj.com/content/early/2020/11/28/jech-2020-215678,https://www.rivm.nl/pienter-corona-studie/resultaten,https://www.rivm.nl/en/pienter-corona-study/results,https://www.medrxiv.org/content/10.1101/2021.03.29.21254334v1,https://wwwnc.cdc.gov/eid/article/27/2/20-2999_article,IFR calculations:  https://www.rivm.nl/coronavirus-covid-19/ziekte,,,,
Europe,Netherlands,Amsterdam,NA,NA,SeroTracker,advanced economy,insufficient information about sample design,https://www.medrxiv.org/content/10.1101/2021.03.08.21252788v1.full-text,https://www.medrxiv.org/content/10.1101/2021.07.21.21260956v1.full,,,,,,,,
Europe,Switzerland,Basel: Basel-Landschaft canton (CI = Corona Immunitas),NA,NA,Google,advanced economy,insufficient information about assay,https://www.corona-immunitas.ch/en/,page 12: https://web.archive.org/web/20201019035807/https://static1.squarespace.com/static/5ecec1e784a2b8398ca91ec9/t/5f6c64df2e37aa70f99f716e/1600939253106/200924_Slides_Corona+Immunitas+at+FOPH.pdf,https://www.corona-immunitas.ch/en/program/studies/d1-covco-basel/,https://www.swisstph.ch/en/projects/covcobasel/,https://www.bs.ch/nm/2020-coronavirus-studie-zu-auswirkungen-und-antikoerpern-in-beiden-basel-gd.html,table 1: https://link.springer.com/article/10.1007/s00038-020-01494-0,,,,
Europe,Switzerland,Basel: Basel-Stadt / Basel-City canton (CI),NA,NA,Google,advanced economy,,https://www.corona-immunitas.ch/en/,page 12: https://web.archive.org/web/20201019035807/https://static1.squarespace.com/static/5ecec1e784a2b8398ca91ec9/t/5f6c64df2e37aa70f99f716e/1600939253106/200924_Slides_Corona+Immunitas+at+FOPH.pdf,https://www.corona-immunitas.ch/en/program/studies/d1-covco-basel/,https://www.swisstph.ch/en/projects/covcobasel/,https://www.bs.ch/nm/2020-coronavirus-studie-zu-auswirkungen-und-antikoerpern-in-beiden-basel-gd.html,table 1: https://link.springer.com/article/10.1007/s00038-020-01494-0,,,,
Europe,Switzerland,Bern (CI),NA,NA,Google,advanced economy,,https://www.unibe.ch/news/media_news/media_relations_e/media_releases/2021/media_releases_2021/only_14_of_the_bernese_population_have_antibodies_against_coronavirus/index_eng.html,https://www.unibe.ch/actualits/mdias/media_relations_f/communiqus_de_presse/2021/communiqus_de_presse_2021/seulement_14_de_la_population_bernoise_possde_des_anticorps_contre_le_coronavirus/index_fra.html,https://www.corona-immunitas.ch/en/,https://www.corona-immunitas.ch/en/program/studies/g1-corona-immunitas-bern/,table 1: https://link.springer.com/article/10.1007/s00038-020-01494-0,,,,,
Europe,Switzerland,Fribourg (CI),NA,NA,SeroTracker,advanced economy,,page 12: https://web.archive.org/web/20201019035807/https://static1.squarespace.com/static/5ecec1e784a2b8398ca91ec9/t/5f6c64df2e37aa70f99f716e/1600939253106/200924_Slides_Corona+Immunitas+at+FOPH.pdf,https://www.corona-immunitas.ch/en/,https://www.unifr.ch/med/imf/fr/assets/public/images/COVID-19/2020-PopHealthLab-Corona-Immunitas-E1.pdf,https://www.corona-immunitas.ch/en/program/studies/c1-corona-immunitas-fribourg/,https://www3.unifr.ch/med/imf/fr/news/covid19/corona-immunitas/,table 1: https://link.springer.com/article/10.1007/s00038-020-01494-0,,,,
Europe,Switzerland,Geneva (CI),NA,NA,SeroTracker,advanced economy,,table S2: https://www.medrxiv.org/content/10.1101/2020.12.16.20248180v1.supplementary-material,https://www.corona-immunitas.ch/en/,https://www.thelancet.com/journals/lancet/article/PIIS0140-6736(20)31304-0/fulltext,https://www.thelancet.com/journals/laninf/article/PIIS1473-3099(20)30584-3/fulltext,page 12: https://web.archive.org/web/20201019035807/https://static1.squarespace.com/static/5ecec1e784a2b8398ca91ec9/t/5f6c64df2e37aa70f99f716e/1600939253106/200924_Slides_Corona+Immunitas+at+FOPH.pdf,table 1: https://link.springer.com/article/10.1007/s00038-020-01494-0,,,,
Europe,Switzerland,Luzern (CI),NA,NA,Google,advanced economy,,https://www.corona-immunitas.ch/en/,https://www.corona-immunitas.ch/en/program/studies/h1-corona-immunitas-luzern/,https://www.corona-immunitas.ch/en/news/regional-update-march-2021/,table 1: https://link.springer.com/article/10.1007/s00038-020-01494-0,,,,,,
Europe,Switzerland,Neuchâtel canton (CI),NA,NA,SeroTracker,advanced economy,,https://www.ne.ch/autorites/DFS/SCSP/medecin-cantonal/maladies-vaccinations/coronaimmunitas/Pages/R%c3%a9sultats-de-l'%c3%a9tude.aspx,https://www.corona-immunitas.ch/en/,https://www.corona-immunitas.ch/en/program/studies/b2-corona-immunitas-neuchatel/,https://www.ne.ch/autorites/DFS/SCSP/medecin-cantonal/maladies-vaccinations/Documents/_covid_CoronaImmunitas_InformationDetaillee.pdf,table 1: https://link.springer.com/article/10.1007/s00038-020-01494-0,assay characteristics: https://jvi.asm.org/content/95/3/e01828-20,,,,
Europe,Switzerland,"Ticino [Cantonal Doctor's office, not CI]",NA,NA,Google,advanced economy,,https://www4.ti.ch/area-media/comunicati/dettaglio-comunicato/?NEWS_ID=188153&tx_tichareamedia_comunicazioni%5Baction%5D=show&tx_tichareamedia_comunicazioni%5Bcontroller%5D=Comunicazioni&cHash=bea1ca89d443e685b2a9079f42186b3d,https://www4.ti.ch/dss/dsp/covid19/popolazione/situazione-epidemiologica/,https://www.ibsagroup.com/media/news/IBSA-donates-serology-study-development-covid-19.html,,,,,,,
Europe,Switzerland,Ticino (CI),NA,NA,SeroTracker,advanced economy,,page 12: https://web.archive.org/web/20201019035807/https://static1.squarespace.com/static/5ecec1e784a2b8398ca91ec9/t/5f6c64df2e37aa70f99f716e/1600939253106/200924_Slides_Corona+Immunitas+at+FOPH.pdf,https://www.corona-immunitas.ch/en/,https://www.corona-immunitas.ch/update/corona-immunitas-ticino-insieme-per-reagire-al-via-la-seconda-fase-del-progetto,https://www.corona-immunitas-ticino.ch/,antibody test: https://www2.supsi.ch/cms/corona-immunitas-ticino/wp-content/uploads/sites/49/2021/02/Documento-infografico-per-linterpretazione-del-risultato-del-test-anticorpale-di-Corona-Immunitas-Ticino-.pdf,https://www.biomed.usi.ch/en/feeds/8913,https://www.corona-immunitas.ch/en/program/studies/f1-corona-immunitas-ticino/,table 1: https://link.springer.com/article/10.1007/s00038-020-01494-0,,
Europe,Switzerland,Val Mesolcina,NA,NA,SeroTracker,advanced economy,,https://www.mdpi.com/2076-0817/10/4/465/htm,,,,,,,,,
Europe,Switzerland,Vaud (CI),NA,NA,SeroTracker,advanced economy,,https://www.corona-immunitas.ch/en/,https://www.corona-immunitas.ch/en/program/studies/b1-serocovid-general-population/,page 12: https://web.archive.org/web/20201019035807/https://static1.squarespace.com/static/5ecec1e784a2b8398ca91ec9/t/5f6c64df2e37aa70f99f716e/1600939253106/200924_Slides_Corona+Immunitas+at+FOPH.pdf,https://jvi.asm.org/content/early/2020/10/30/JVI.01828-20,"""Fenwick"" in Serotracker: https://www.medrxiv.org/content/10.1101/2020.11.17.20233460v2.supplementary-material",table 1: https://link.springer.com/article/10.1007/s00038-020-01494-0,https://www.unisante.ch/fr/unisante/actualites/covid-19-7-vaudoises-infectees,https://www.vd.ch/toutes-les-actualites/hotline-et-informations-sur-le-coronavirus/port-du-masque-quarantaine-tests-ems-conseils-sante-symptomes-etc/coronavirus-serologies/,https://www.vd.ch/toutes-les-actualites/communiques-de-presse/detail/communique/les-resultats-preliminaires-de-letude-menee-aupres-de-la-population-du-canton-pour-comprendre-comme/,https://serocovid.unisante.ch/
Europe,Switzerland,Zurich (CI),NA,NA,Google,advanced economy,insufficient information about assay,page 12: https://web.archive.org/web/20201019035807/https://static1.squarespace.com/static/5ecec1e784a2b8398ca91ec9/t/5f6c64df2e37aa70f99f716e/1600939253106/200924_Slides_Corona+Immunitas+at+FOPH.pdf,https://www.corona-immunitas.ch/en/,https://www.corona-immunitas.ch/en/program/studies/e1-corona-immunitas-zurich/,https://www.ebpi.uzh.ch/en/translational_research/community_and_health/seroprevalence_corona_immunitas.html,https://www.zh.ch/de/news-uebersicht/medienmitteilungen/2021/02/zuercher-studien-zu-seropraevalenz-von-spitex--und-heimpersonal-sowie-zu-immunantwort-und-langzeitfolgen-bei-corona-positiv-getesteten.html,table 1: https://link.springer.com/article/10.1007/s00038-020-01494-0,,,,
Europe,Andorra,national,NA,NA,SeroTracker,advanced economy,,https://www.sciencedirect.com/science/article/pii/S266677622100096X,https://www.researchsquare.com/article/rs-119323/v1,https://www.govern.ad/comunicats/item/11629-els-tests-d-anticossos-permeten-diagnosticar-78-positius-de-la-covid-19-que-podrien-haver-contagiat-unes-360-persones,https://www.govern.ad/comunicats/item/11577-martinez-benazet-agraeix-a-institucions-voluntaris-i-a-la-poblacio-que-ha-participat-en-l-estudi-nacional-d-anticossos,,,,,,
Europe,Monaco,national,NA,NA,Google,advanced economy,insufficient information about assay,"""What results has the [...]""  :  http://web.archive.org/web/20201111050058/https://covid19.mc/en/covid-19-informations-gouvernement-princier/tout-sur-les-tests-diagnostics/",https://web.archive.org/web/20201111051456/https://pbs.twimg.com/media/EmhLPpBXIAEZg2M?format=jpg&name=small,https://twitter.com/GvtMonaco/status/1262330404851384320,https://twitter.com/GvtMonaco/status/1263880919783530501,https://twitter.com/GvtMonaco/status/1266398393125023745,https://www.tellerreport.com/news/2020-06-16-monaco-has-tested-its-population-and-the-seroprevalence-rate-is-very-low.SJ66VJ4UT8.html,,,,
Europe,Spain,national,NA,NA,SeroTracker,advanced economy,,https://www.thelancet.com/journals/lancet/article/PIIS0140-6736(20)31483-5/fulltext,https://www.mscbs.gob.es/gabinetePrensa/notaPrensa/pdf/15.12151220163348113.pdf,https://www.bmj.com/content/371/bmj.m4509,https://www.thelancet.com/journals/lancet/article/PIIS0140-6736(20)32266-2/fulltext#sec1,https://portalcne.isciii.es/enecovid19/informes/informe_final.pdf,https://portalcne.isciii.es/enecovid19/,,,,
Europe,Spain,Arganda del Rey,NA,NA,SeroTracker,advanced economy,,https://www.ayto-arganda.es/noticias/resultados-de-la-tercera-y-ultima-tanda-del-estudio-serologico-de-prevalencia-de-arganda-del-rey/,https://www.ayto-arganda.es/noticias/comienza-la-primera-tanda-del-estudio-serologico-de-prevalencia-de-arganda-del-rey/,https://www.ayto-arganda.es/noticias/desde-este-lunes-se-esta-realizando-la-segunda-tanda-del-estudio-serologico-de-prevalencia/,https://www.ayto-arganda.es/noticias/hoy-arranca-tercera-y-ultima-tanda-del-estudio-serologico-de-prevalencia-donde-habra-citas-para-personas-voluntarias/,,,,,,
Europe,Spain,Barcelona: community area,NA,NA,SeroTracker,advanced economy,unclear if GP practices cover a representative majority of the population,https://www.ncbi.nlm.nih.gov/pmc/articles/PMC7797756/,,,,,,,,,
Europe,Spain,Cantabria,NA,NA,SeroTracker,advanced economy,,https://www.nature.com/articles/s41598-021-89236-x,,,,,,,,,
Europe,Spain,Catalonia,NA,NA,SeroTracker,advanced economy,non-representative sample,https://www.researchsquare.com/article/rs-448363/v1,,,,,,,,,
Europe,Spain,Cendea de Cizur (in Navarra),NA,NA,SeroTracker,advanced economy,insufficient information about sample design,https://www.isglobal.org/en_GB/-/coronavirus-nuevos-datos-de-seroprevalencia-para-un-municipio-en-navarra,https://www.isglobal.org/en/-/encuesta-serologica-cendea-de-cizur,https://www.isglobal.org/en/healthisglobal/-/custom-blog-portlet/isglobal-y-la-universidad-de-navarra-ponen-en-marcha-un-nuevo-estudio-de-seroprevalencia-de-la-covid-19-en-la-cendea-de-ciz-2/8000927/11904,https://www.isglobal.org/en/-/isglobal-y-el-hospital-clinic-inician-dos-nuevos-estudios-para-combatir-la-covid-19,https://www.youtube.com/watch?v=Nraa08aawjY&list=PLpt0ABnq8FHL3dvFQXQ9dJIC7eabUZlpr,,,,,
Europe,Spain,Torrejón de Ardoz,NA,NA,SeroTracker,advanced economy,,https://www.ayto-torrejon.es/index.php/noticia/nota-de-prensa/el-estudio-de-seroprevalencia-de-torrejon-de-ardoz-revela-una-prevalencia-de,https://www.ayto-torrejon.es/sites/default/files/inline-files/dossier%20estudio%20Torrej%C3%B3n.pdf,https://www.ayto-torrejon.es/index.php/revista-plaza-mayor/2/jun-2020,https://www.ayto-torrejon.es/sites/default/files/inline-files/Consentimiento%20estudio%20epidemiol%C3%B3gico%2028-05-2020.pdf,,,,,,
Europe,Portugal,national,NA,NA,SeroTracker,advanced economy,non-probabilistic sampling,https://actamedicaportuguesa.com/revista/index.php/amp/article/view/15122/6245,http://www.insa.min-saude.pt/wp-content/uploads/2020/07/ISN_COVID19_Relatorio_31_07_2020.pdf,https://www.sns.gov.pt/noticias/2021/03/05/covid-19-inquerito-serologico-do-insa/?utm_source=rss&utm_medium=rss&utm_campaign=covid-19-inquerito-serologico-do-insa,,,,,,,
Europe,Italy,national,NA,NA,SeroTracker,advanced economy,,https://www.istat.it/it/archivio/246156,http://www.salute.gov.it/portale/news/p3_2_1_1_1.jsp?lingua=italiano&menu=notizie&p=dalministero&id=4998,https://www.istat.it/it/archivio/243340,https://www.tandfonline.com/doi/abs/10.1080/20477724.2020.1827617,,,,,,
Europe,Italy,Ariano Irpino,NA,NA,SeroTracker,advanced economy,convenience sample,https://www.future-science.com/doi/10.2144/fsoa-2020-0203,https://www.ncbi.nlm.nih.gov/pmc/articles/PMC7802431/,https://www.giustizianews24.it/2020/05/28/coronavirus-lincubo-senza-fine-di-ariano-irpino-60-positivi-al-tampone-dopo-i-test-sierologici/,,,,,,,
Europe,Italy,Caldari Ortona,NA,NA,SeroTracker,advanced economy,,https://www.mdpi.com/2076-2607/8/11/1711/htm,https://www.facebook.com/permalink.php?story_fbid=2641849239395478&id=1570274993219580,https://www.rete8.it/cronaca/345test-sierologici-12-cittadini-caldari-ortona-positivi-con-anticorpi-al-covid-19/,,,,,,,
Europe,Italy,Castiglione D'Adda,NA,NA,SeroTracker,advanced economy,,https://www.journalofinfection.com/article/S0163-4453(20)30629-0/fulltext,https://journals.plos.org/plosone/article?id=10.1371/journal.pone.0246513,https://www.medrxiv.org/content/10.1101/2020.06.06.20124081v1,https://papers.ssrn.com/sol3/papers.cfm?abstract_id=3668431,https://poseidon01.ssrn.com/delivery.php?ID=558024120114001065081066013064123028001081036015093092028031018024009109037103017079096121114071083006102098121117072079074008093114071058022020074024027021064063126023019000072003049015071014100047030099039009013120000005106006068087125115090104079072113024028026110091105086127123020068013&EXT=pdf&INDEX=TRUE,https://www.medrxiv.org/content/10.1101/2020.06.24.20138875v2,,,,
Europe,Italy,Cogne,NA,NA,SeroTracker,advanced economy,,https://www.medrxiv.org/content/10.1101/2021.03.19.21253962v1.full-text,,,,,,,,,
Europe,Italy,Lodi (only randomly selected general population),NA,NA,SeroTracker,advanced economy,,https://papers.ssrn.com/sol3/papers.cfm?abstract_id=3650227,,,,,,,,,
Europe,Italy,"South Tyrol, excludes Val Gardena",NA,NA,Twitter,advanced economy,insufficient information about assay,https://astat.provinz.bz.it/de/aktuelles-publikationen-info.asp?news_action=4&news_article_id=642924,https://www.suedtirolnews.it/chronik/erste-ergebnisse-der-landesweiten-covid-19-studie,https://sabes.it/de/news.asp?aktuelles_action=4&aktuelles_article_id=641214,,,,,,,
Europe,Italy,Trento: 5 municipalities,NA,NA,SeroTracker,advanced economy,,https://www.clinicalmicrobiologyandinfection.com/article/S1198-743X(20)30709-6/fulltext#secsectitle0045,follow-up: https://www.medrxiv.org/content/10.1101/2020.11.11.20229062v2.full-text,,,,,,,,
Europe,Italy,Val Gardena and associated regions,NA,NA,SeroTracker,advanced economy,,https://www.medrxiv.org/content/10.1101/2021.03.19.21253883v1.full-text,"https://astat.provinz.bz.it/de/aktuelles-publikationen-info.asp?news_action=300&news_image_id=1074600  (""Study on the prevalence of Covid-19 in the Val Gardena - June 2020"")",,,,,,,,
Europe,Italy,Verona,NA,NA,SeroTracker,advanced economy,,https://wwwnc.cdc.gov/eid/article/27/1/20-2740_article,https://bmjopen.bmj.com/content/10/10/e040036.long,,,,,,,,
Europe,Italy,Vo',NA,NA,SeroTracker,advanced economy,,https://www.nature.com/articles/s41467-021-24622-7,https://papers.ssrn.com/sol3/papers.cfm?abstract_id=3792892,supporting table S1: https://www.medrxiv.org/content/10.1101/2020.11.09.20228023v1,methodology for an earlier study: https://www.nature.com/articles/s41586-020-2488-1,methodology for an earlier study: https://www.medrxiv.org/content/10.1101/2020.04.17.20053157v1.full,,,,,
Africa,Cape Verde,National,-23.92,15.92,SeroTracker,use of unreliable assay,,https://biomedgrid.com/pdf/AJBSR.MS.ID.001835.pdf,https://papers.ssrn.com/sol3/papers.cfm?abstract_id=3762489,https://web.archive.org/web/20201207061546/http://www.minsaude.gov.cv/index.php/documentosite/coronavirus-covid-19/539-inquerito-sero-prevalencia-sobre-a-covid-19/file?fbclid=IwAR1epD8GSbSKr8aHTcSVBDMTpStSwuKEBKG3qKFuF7kV86RlK7SJ5S3O3zo,https://covid19.cv/inquerito-sero-epidemiologico-da-infeccao-por-sars-cov-2-em-cabo-verde/,https://www.youtube.com/watch?v=1kHYd7Wy8LM,https://covid19.cv/o-estudo-de-sero-prevalencia-da-covid-19-em-cabo-verde-revelou-uma-prevalencia-de-04/,,,,
Africa,Ghana,Great Accra region: selected locations,-0.2,5.55,MedRxiv,non-representative sample,"sampling shoppers, etc.",https://www.medrxiv.org/content/10.1101/2021.04.25.21256067v2.full-text,https://www.ug.edu.gh/announcements/webinar-results-waccbip-covid-19-seroprevalence-studies-parts-southern-ghana,https://www.waccbip.org/1-million-people-already-exposed-to-covid-19-in-accra-scientists-estimate/,,,,,,,
Africa,Malawi,Karonga + Lilongwe,33.76,-13.98,Twitter,insufficient information about sample design,,http://www.meiru.info/covid-19-research/,https://twitter.com/DrToniHo/status/1371476615058833411,,,,,,,,
Africa,Mali,"Bancoumana town, Donéguébougou, Sotuba",-4,17,SeroTracker,non-representative sample,,https://www.medrxiv.org/content/10.1101/2021.04.26.21256016v1.full-text,,,,,,,,,
Africa,Nigeria,"Enugu, Gombe, Lagos, Nasarawa states",3.38,6.46,Google,insufficient information about assay,,https://ncdc.gov.ng/news/item/323/?t=ncdc-and-nimr-release-findings-of-covid-19-household-seroprevalence-surveys-in-four-states-of-nigeria,http://ciheb.org/News/COVID-19-Survey-Releases-Preliminary-Estimates-of-Seroprevalence-in-Nigeria/,http://ciheb.org/news/COVID-19-Survey-Launches-in-Nigeria/,https://ncdc.gov.ng/reports/277/2020-september-week-36,page 20: https://www.cdc.gov/coronavirus/2019-ncov/downloads/global-covid-19/seroprevalence-surveys-for-COVID-19.pdf,https://twitter.com/CIHEB_Nigeria/status/1369987432704323588,https://ncdc.gov.ng/news/267/ncdc-and-nimr-launch-covid-19-household-seroprevalence-surveys-in-selected-states-of-nigeria,,,
Africa,Sierra Leone,National,-12.1,8.5,SeroTracker,post-cutoff specimen collection,,https://www.medrxiv.org/content/10.1101/2021.06.27.21259271v1.full-text,,,,,,,,,
Africa,South Africa,Agincourt (PHIRST-C study),31.23,-24.83,SeroTracker,non-representative sample,non-probabilistic selection of villages,https://wwwnc.cdc.gov/eid/article/27/12/21-1465_article,https://www.medrxiv.org/content/10.1101/2021.05.26.21257849v1.full-text,,,,,,,,
Africa,South Africa,Gauteng Province,28,-26,SSRN,insufficient information about assay,,https://papers.ssrn.com/sol3/papers.cfm?abstract_id=3855442,from 30:07 : https://twitter.com/GautengProvince/status/1390594582975590400,https://www.gauteng.gov.za/Publications/PublicationDetails/FB23F01D-3BBB-414D-8258-64A6209AE7E8,https://twitter.com/GautengProvince/status/1390602906722836482,https://ms-my.facebook.com/GautengGov/photos/pcb.4519847371378299/4519846551378381,https://ms-my.facebook.com/GautengGov/photos/pcb.4519872254709144/4519871988042504,https://ms-my.facebook.com/GautengGov/photos/pcb.4519874848042218/4519874428042260,https://www.gauteng.gov.za/Services/Search?searchText=COVID-19%20antibody%20survey,https://www.covid-arg.com/post/seroprevalence-survey-result-in-gauteng-south-africa,
Middle East,Afghanistan,National,69.2,34.52,SeroTracker,insufficient information about assay,"no information about confidence intervals or sample size used to find for test characteristics, assay name; Novazym assay was not ""FDA authorized"", contrary to the report",https://moph.gov.af/sites/default/files/2020-08/Final%20COVID-19%20Survey%20English%20Report.pdf,https://archive.is/hzcSv,https://twitter.com/mophofficial/status/1290959681545019393,,,,,,,
Middle East,Kyrgyzstan,National,75,41,Google,insufficient information about assay,,http://med.kg/en/news/3376-preliminary-results-of-seroepidemiological-covid-19-testing-in-kyrgyzstan.html,https://www.ncbi.nlm.nih.gov/pmc/articles/PMC7898654/,page 35: https://www.cdc.gov/coronavirus/2019-ncov/downloads/global-covid-19/seroprevalence-surveys-for-COVID-19.pdf,,,,,,,
Middle East,Palestine,West Bank,35.38,32,Google,non-representative sample,failed to reach >35% of sample reporting as female,https://bmjopen.bmj.com/content/11/2/e044552.long,https://www.medrxiv.org/content/10.1101/2020.08.28.20180083v3,,,,,,,,
Middle East,Turkey,National,35,39,Twitter,insufficient information about sample design,,https://twitter.com/drfahrettinkoca/status/1278596313379213312,https://www.sozcu.com.tr/2020/saglik/saglik-bakani-fahrettin-koca-turkiyenin-antikor-testi-sonuclarini-acikladi-5906832/,https://www.youtube.com/watch?v=0DyL3Ha-ImE,https://ahvalnews.com/turkey-coronavirus/turkey-conduct-half-million-covid-19-antibody-tests-bloomberg,,,,,,
South Asia,Bangladesh,Dhaka,90.39,23.75,Google,insufficient information about assay,,https://www.icddrb.org/news-and-events/press-corner/press-releases?id=97&task=view,https://tbsnews.net/coronavirus-chronicle/covid-19-bangladesh/45-dhaka-population-develops-covid-19-antibodies-144205,http://ddnews.gov.in/international/45-people-dhaka-carry-covid-19-antivirus-iedcr,https://thefinancialexpress.com.bd/national/bangladesh-sees-herd-immunity-study-1602561365,,,,,,
South Asia,Bangladesh,Chattogram & Dhaka,91.85,22.34,Google,insufficient information about sample design,,https://www.icddrb.org/news-and-events/news?id=878,,,,,,,,,
South Asia,India,Karnataka: Bangalore Rural District,77.6,12.97,Google,non-representative sample,,https://journals.plos.org/plosone/article?id=10.1371/journal.pone.0249247,,,,,,,,,
South Asia,India,"Karnataka: Bangalore Urban District, DJ Halli",77.5,12.8,Google,insufficient information about sample design,,https://www.ncbi.nlm.nih.gov/pmc/articles/PMC7884660/,,,,,,,,,
South Asia,India,Maharashtra: Aurangabad district,72.82,18.97,SeroTracker,insufficient information about assay,,https://ijcrt.org/papers/IJCRT2009467.pdf,https://twitter.com/DrSubhasree/status/1298116735724265472,,,,,,,,
South Asia,Maldives,Male',73.5,4.17,Google,insufficient information about assay,,"December 6th video, 6:13 - 10:56 : https://www.facebook.com/oneonlinemv/videos/onelive-heoc-press-briefing-regarding-covid19-outbreak-in-maldives/200716321694611/?__so__=permalink&__rv__=related_videos",for the December 6th video: https://twitter.com/HPA_MV/status/1335594914143379457,https://edition.mv/health_emergency_operation_center_heoc/20789,https://twitter.com/HPA_MV/status/1318517246474383360,https://mnu.edu.mv/antibody-testing-covid-19-seroprevalence-study/,https://twitter.com/HPA_MV/status/1326872930760974339,https://twitter.com/HPA_MV/status/1319585266428825600,,,
South Asia,Pakistan,National,73.02,33.68,Google,insufficient information about assay,,https://www.aku.edu/news/Pages/News_Details.aspx?nid=NEWS-002322,page 44: https://www.cdc.gov/coronavirus/2019-ncov/downloads/global-covid-19/seroprevalence-surveys-for-COVID-19.pdf,https://www.dawn.com/news/1575607,,,,,,,
South Asia,Pakistan,Karachi neighborhoods,67.01,24.85,SeroTracker,non-representative sample,,https://www.sciencedirect.com/science/article/pii/S1201971221002587,https://www.medrxiv.org/content/10.1101/2020.07.28.20163451v4,https://www.aku.edu/news/Pages/News_Details.aspx?nid=NEWS-002322,,,,,,,
South Asia,Sri Lanka,Colombo Municipality region: 6 districts,79.86,6.93,SeroTracker,insufficient information about sample design,,https://www.medrxiv.org/content/10.1101/2021.06.18.21259143v1,https://papers.ssrn.com/sol3/papers.cfm?abstract_id=3854637,,,,,,,,
East Asia,Japan,Hiroshima: 5 municipalities,NA,NA,SeroTracker,advanced economy,,https://www.pref.hiroshima.lg.jp/site/2019-ncov/message20201030.html,https://www.pref.hiroshima.lg.jp/uploaded/attachment/409861.pdf,https://www.pref.hiroshima.lg.jp/uploaded/attachment/421762.pdf,https://www.pref.hiroshima.lg.jp/soshiki/57/corona-tyousa.html,,,,,,
East Asia,Japan,"Miyagi, Osaka, Tokyo",NA,NA,SeroTracker,advanced economy,,https://wwwnc.cdc.gov/eid/article/27/2/20-4088_article,page 13: https://web.archive.org/web/20200723070434/https://www.mofa.go.jp/files/100068737.pdf  ;  from: https://www.mhlw.go.jp/stf/seisakunitsuite/bunya/newpage_00032.html,https://www.mhlw.go.jp/stf/seisakunitsuite/bunya/0000121431_00132.html,https://www.mhlw.go.jp/content/000637286.pdf,https://www.pref.miyagi.jp/release/ho20200525-2.html,,,,,
East Asia,Japan,"Miyagi, Osaka, Tokyo, Aichi, Fukuoka",NA,NA,Twitter,advanced economy,,https://www.mhlw.go.jp/content/000761671.pdf,https://www.pref.aichi.jp/site/covid19-aichi/koutaikekka-kakuteiti.html,https://www.pref.aichi.jp/site/covid19-aichi/koutaikekka.html,https://www.pref.aichi.jp/site/covid19-aichi/koutaityousa.html,https://www.mhlw.go.jp/stf/seisakunitsuite/bunya/0000121431_00132.html,,,,,
East Asia,Japan,Wakayama,NA,NA,Twitter,advanced economy,insufficient information about sample design,http://wave.pref.wakayama.lg.jp/news/kensei/shiryo.php?sid=31587,,,,,,,,,
East Asia,Japan,Utsunomiya City (Greater Tokyo),NA,NA,SeroTracker,advanced economy,,https://onlinelibrary.wiley.com/doi/full/10.1002/jgf2.408,https://www.medrxiv.org/content/10.1101/2020.07.20.20155945v1?rss=1%22,,,,,,,,
East Asia,Malaysia,National,101.68,3.13,MedRxiv,insufficient information about assay,see page 22,https://www.medrxiv.org/content/10.1101/2021.07.05.21259999v1.full.pdf,https://ojs.wpro.who.int/ojs/index.php/wpsar/article/view/842,http://iku.moh.gov.my/nhms,http://iku.moh.gov.my/nhms2020,https://in.eregnow.com/cdn/ucontent/ticketing/2436/file_596814037_151.pdf,https://zenodo.org/record/4015745#.YLNqiahKiM8,https://www.ijidonline.com/article/S1201-9712(20)31651-9/fulltext,https://www.facebook.com/nhms.iku/,,
East Asia,Philippines,Barangay Carmen,123.96,10.57,Google,insufficient information about sample design,,https://www.youtube.com/watch?v=YyZyBNV_3SA,https://www.pna.gov.ph/articles/1107057,https://covid19response.cagayandeoro.gov.ph/news/item/384-after-8th-covid-19-death-portion-of-upper-carmen-under-localized-quarantine.html,https://www.facebook.com/tvpnorthernmindanao/videos/resulta-sa-covid-19-seroprevalence-survey-sa-brgy-carmen-cdo/285982555846272/,,,,,,
East Asia,Singapore,national,NA,NA,SeroTracker,advanced economy,SPHS cohort may not be representative of the general population,https://www.researchsquare.com/article/rs-441527/v1,https://blog.nus.edu.sg/sphs/,,,,,,,,
East Asia,South Korea,national,NA,NA,Google,advanced economy,,https://link.springer.com/article/10.1007/s42952-021-00131-7,https://arxiv.org/abs/2101.11991,https://www.cdc.go.kr/board/board.es?mid=&bid=0030&tag=&act=view&list_no=367740,method for serum collection: https://www.ncbi.nlm.nih.gov/pmc/articles/PMC3937975/,,,,,,
Polynesia,"Tahiti , Moorea",National,149.42,-17.67,Google,insufficient information about assay,,https://www.facebook.com/TahitiNuiTelevision/videos/edition-sp%C3%A9ciale-du-17-mars/281631116763668/,https://www.radio1.pf/25-de-la-population-des-iles-du-vent-aurait-eu-le-covid/,https://www.service-public.pf/dsp/2021/02/05/lancement-etude-seroprevalence/,,,,,,,
